{"type":"FeatureCollection","features":[{"type":"Feature","properties":{"kind":"river","name":"Guadalupe River"},"geometry":{"type":"LineString","coordinates":[[123.87515,10.332609],[123.875367,10.332474],[123.875572,10.332311],[123.875872,10.332046],[123.876456,10.331511],[123.87691,10.33125],[123.876998,10.331126],[123.877085,10.331119],[123.87716,10.331129],[123.877197,10.331135],[123.877227,10.331227],[123.877357,10.331845],[123.877448,10.331952],[123.877814,10.332136],[123.878129,10.332131],[123.878881,10.332102],[123.879641,10.332131],[123.880045,10.332114],[123.880248,10.33211],[123.880475,10.332116],[123.880583,10.332219],[123.880703,10.332287],[123.880824,10.332308],[123.880903,10.332324],[123.881009,10.332301],[123.881146,10.332243],[123.881472,10.331948],[123.881666,10.331803],[123.881795,10.331684],[123.882004,10.331534],[123.882389,10.331323],[123.882683,10.331167],[123.88308,10.330889],[123.883378,10.330581],[123.883582,10.330457],[123.883674,10.330438],[123.883862,10.330471],[123.884057,10.330438],[123.884241,10.330336],[123.884383,10.330127],[123.88481,10.329003],[123.884878,10.32894],[123.884968,10.328895],[123.885162,10.328889],[123.885511,10.328887],[123.885725,10.328847],[123.88595,10.328677],[123.886114,10.328557],[123.886266,10.328405],[123.886441,10.328196],[123.886527,10.32801],[123.886543,10.327867],[123.886342,10.327601],[123.886285,10.327476],[123.886295,10.327325],[123.886351,10.327259],[123.886411,10.3272],[123.886521,10.327161],[123.886646,10.327182],[123.886874,10.327191],[123.887174,10.327149],[123.887389,10.327094],[123.887773,10.327029],[123.887982,10.32693],[123.88812,10.32673],[123.888214,10.326527],[123.888333,10.326005],[123.888503,10.325615],[123.888536,10.3255],[123.888723,10.325189],[123.889019,10.324814],[123.889161,10.324526],[123.889297,10.323859],[123.889591,10.323099]]}},{"type":"Feature","properties":{"kind":"river","name":"Guadalupe River"},"geometry":{"type":"LineString","coordinates":[[123.855053,10.354],[123.855297,10.353967],[123.855549,10.354127],[123.855765,10.354191],[123.856212,10.354111],[123.856411,10.354067],[123.856797,10.354135],[123.857037,10.354238],[123.857409,10.354228],[123.857788,10.354332],[123.857906,10.354585],[123.858097,10.354776],[123.858171,10.354867],[123.858362,10.354877],[123.858645,10.354992],[123.858882,10.35499],[123.859335,10.354893],[123.859461,10.354905],[123.859755,10.354934],[123.860066,10.355094],[123.860155,10.35514],[123.86033,10.355112],[123.86069,10.35495],[123.861014,10.355172],[123.861199,10.355163],[123.861504,10.355078],[123.86158,10.354916],[123.861621,10.354592],[123.861489,10.354478],[123.861196,10.354444],[123.861058,10.354162],[123.860968,10.353729],[123.861195,10.353393],[123.861618,10.35311],[123.861657,10.3528],[123.861884,10.352358],[123.862075,10.352254],[123.862464,10.352327],[123.86264,10.352302],[123.862672,10.352203],[123.862543,10.351982],[123.862504,10.351796],[123.862554,10.351728],[123.862726,10.351692],[123.862934,10.351548],[123.863087,10.351387],[123.863087,10.35099],[123.862984,10.350777],[123.863161,10.350677],[123.863335,10.350687],[123.863597,10.350823],[123.863947,10.350886],[123.864212,10.350844],[123.864311,10.3506],[123.864166,10.350398],[123.863968,10.350161],[123.86388,10.349942],[123.863851,10.349817],[123.863905,10.349663],[123.864018,10.349475],[123.863943,10.349367],[123.863699,10.349211],[123.863652,10.34899],[123.863653,10.34855],[123.863676,10.348039],[123.863737,10.347726],[123.863793,10.3474],[123.863914,10.347088],[123.863914,10.346876],[123.863998,10.346596],[123.863975,10.346298],[123.864157,10.346127],[123.864414,10.346141],[123.864524,10.346041],[123.864483,10.345918],[123.864377,10.345883],[123.864218,10.34583],[123.863845,10.34553],[123.863786,10.345423],[123.86351,10.345137],[123.8634,10.345078],[123.863128,10.344723],[123.862896,10.344575],[123.862878,10.34447],[123.862867,10.344383],[123.862916,10.344254],[123.862963,10.344158],[123.863059,10.344113],[123.863242,10.344124],[123.863432,10.344121],[123.863571,10.344128],[123.863669,10.344114],[123.863702,10.344057],[123.863705,10.343993],[123.863506,10.343528],[123.863419,10.343353],[123.863275,10.343074],[123.86325,10.34288],[123.8634,10.342688],[123.863782,10.342471],[123.86379,10.342339],[123.863665,10.342231],[123.863075,10.342331],[123.862987,10.342285],[123.862952,10.342121],[123.863149,10.341529],[123.863027,10.341393],[123.862555,10.341262],[123.86249,10.341172],[123.862546,10.341013],[123.862744,10.34096],[123.86304,10.340988],[123.863231,10.340904],[123.863354,10.340655],[123.86338,10.340271],[123.863456,10.340061],[123.863568,10.340063],[123.863927,10.340114],[123.864057,10.340091],[123.864106,10.339989],[123.864065,10.339813],[123.863884,10.339444],[123.863332,10.339283],[123.863216,10.339165],[123.863213,10.338886],[123.863373,10.338627],[123.863418,10.338526],[123.863441,10.338186],[123.863425,10.337873],[123.863439,10.337646],[123.863364,10.337533],[123.863186,10.337328],[123.863076,10.337176],[123.86303,10.337038],[123.863059,10.336848],[123.863275,10.336774],[123.863441,10.336894],[123.863559,10.337041],[123.863681,10.337188],[123.863892,10.337402],[123.864078,10.33749],[123.864262,10.337478],[123.864362,10.337359],[123.86438,10.337239],[123.864424,10.336947],[123.864693,10.336639],[123.865245,10.336277],[123.865864,10.335791],[123.866529,10.335318],[123.866603,10.335258],[123.866732,10.335026],[123.866852,10.334921],[123.867132,10.33468],[123.867595,10.334225],[123.867787,10.33402],[123.867929,10.33392],[123.868109,10.33387],[123.868701,10.333992],[123.868832,10.334058],[123.868875,10.334197],[123.868928,10.33438],[123.86912,10.334537],[123.869444,10.33465],[123.86975,10.334686],[123.869967,10.334664],[123.870244,10.334428],[123.870435,10.334242],[123.870672,10.334194],[123.870873,10.334242],[123.871065,10.334336],[123.871286,10.334474],[123.871587,10.334578],[123.871879,10.334649],[123.87208,10.334671],[123.872219,10.334661],[123.872322,10.334614],[123.872427,10.334523],[123.872486,10.334351],[123.872493,10.33414],[123.872445,10.333975],[123.872293,10.33378],[123.872261,10.333714],[123.872165,10.333436],[123.872073,10.333146],[123.872089,10.332955],[123.872217,10.332739],[123.87237,10.332635],[123.872693,10.332484],[123.872812,10.332377],[123.872959,10.332241],[123.873027,10.332123],[123.873048,10.332028],[123.873096,10.331861],[123.87317,10.331739],[123.873351,10.331585],[123.873571,10.33147],[123.873765,10.331461]]}},{"type":"Feature","properties":{"kind":"stream","name":""},"geometry":{"type":"LineString","coordinates":[[123.870437,10.309021],[123.870411,10.308049],[123.870411,10.307943],[123.870346,10.307854],[123.870062,10.307714],[123.870017,10.307639],[123.869967,10.307511],[123.869955,10.307299],[123.869961,10.30704],[123.87004,10.306901],[123.870091,10.306833],[123.870338,10.306776],[123.87059,10.306779],[123.870721,10.306703],[123.870885,10.306541],[123.871061,10.306401],[123.871302,10.306413],[123.871484,10.306326],[123.871543,10.306326],[123.87157,10.306278],[123.8715,10.306184],[123.871482,10.305946],[123.871534,10.30582],[123.871618,10.305618],[123.871865,10.30535]]}},{"type":"Feature","properties":{"kind":"stream","name":""},"geometry":{"type":"LineString","coordinates":[[123.868053,10.314938],[123.868434,10.314679],[123.868481,10.314662],[123.868596,10.314639],[123.86867,10.314575],[123.868785,10.314546],[123.868874,10.314511],[123.868924,10.314461],[123.868957,10.314418],[123.868963,10.314334],[123.869063,10.31415],[123.869096,10.313991],[123.869001,10.313874],[123.868942,10.31377],[123.868898,10.313566],[123.868853,10.313427],[123.868915,10.313313],[123.869004,10.313217],[123.869013,10.31311],[123.869019,10.312997],[123.869051,10.31288],[123.869253,10.312591],[123.869426,10.31227],[123.869526,10.311788],[123.869457,10.31137]]}},{"type":"Feature","properties":{"kind":"river","name":"Kinalumsan River"},"geometry":{"type":"LineString","coordinates":[[123.869929,10.298571],[123.869939,10.298572],[123.870006,10.298578],[123.870137,10.298621],[123.870269,10.298654],[123.870491,10.29866],[123.870838,10.298606],[123.871171,10.298509],[123.871244,10.298488],[123.871252,10.298485],[123.871356,10.298443],[123.871424,10.298392],[123.871463,10.298376],[123.871611,10.298317],[123.871702,10.298246],[123.871907,10.298048],[123.872079,10.297841],[123.872204,10.297741],[123.872302,10.297826],[123.872378,10.297874],[123.872433,10.297899],[123.872587,10.2979],[123.872684,10.297936],[123.872779,10.298036],[123.87284,10.298101],[123.872981,10.298305],[123.873117,10.298428],[123.873163,10.298458],[123.873302,10.29855],[123.873485,10.298694],[123.873542,10.298718],[123.873657,10.298699],[123.873812,10.298561],[123.874032,10.298366],[123.874152,10.298386],[123.874235,10.29841],[123.874297,10.298437],[123.874338,10.298478],[123.874387,10.298625],[123.874501,10.298936],[123.874608,10.299003],[123.874666,10.299006],[123.874728,10.298994],[123.874929,10.298929],[123.874998,10.298932],[123.875052,10.298965],[123.875179,10.29904],[123.875336,10.29913],[123.87547,10.299158],[123.875533,10.299158],[123.875687,10.299061],[123.875904,10.298985],[123.876134,10.29899],[123.876465,10.299005],[123.876739,10.298988],[123.876832,10.29905],[123.876912,10.299191],[123.87751,10.299366],[123.877612,10.299399],[123.877737,10.299357],[123.877808,10.299275],[123.877787,10.299132],[123.877713,10.29873],[123.877719,10.298593],[123.877843,10.298494],[123.878024,10.298371],[123.878279,10.298234],[123.878388,10.298092],[123.8784,10.297981],[123.878403,10.297803],[123.878456,10.297599],[123.878499,10.297474],[123.878569,10.297371],[123.878655,10.297267],[123.878932,10.296895],[123.879161,10.296646],[123.879235,10.296477],[123.879286,10.296145],[123.879348,10.295704],[123.879658,10.295019],[123.879892,10.294213],[123.879913,10.29414],[123.880148,10.293362]]}},{"type":"Feature","properties":{"kind":"stream","name":""},"geometry":{"type":"LineString","coordinates":[[123.876629,10.30226],[123.876652,10.302169],[123.876694,10.302064],[123.876643,10.301989],[123.876665,10.301873],[123.876822,10.301791],[123.876849,10.30177],[123.876872,10.301578],[123.876846,10.301511],[123.876771,10.301477],[123.876748,10.301371],[123.876738,10.301292],[123.876708,10.30115],[123.876878,10.300986],[123.876866,10.300825],[123.876789,10.300587],[123.87696,10.30014],[123.877049,10.299867],[123.877168,10.299701],[123.877511,10.299503],[123.877612,10.299399]]}},{"type":"Feature","properties":{"kind":"stream","name":""},"geometry":{"type":"LineString","coordinates":[[123.864228,10.315198],[123.864127,10.314757],[123.864166,10.314409],[123.864503,10.314188],[123.864823,10.313867],[123.865389,10.313698],[123.865816,10.31346],[123.866133,10.313142],[123.866344,10.312953],[123.866535,10.312641],[123.86667,10.312335],[123.866708,10.31201],[123.866784,10.311624],[123.867121,10.311333],[123.867568,10.311062],[123.867759,10.310954],[123.867903,10.310776],[123.868161,10.310641],[123.868431,10.310499],[123.868588,10.310485],[123.868914,10.310455],[123.869173,10.310434],[123.869387,10.310379],[123.869458,10.31036],[123.869721,10.310185],[123.87002,10.30984],[123.870344,10.309258]]}},{"type":"Feature","properties":{"kind":"river","name":"Mananga River"},"geometry":{"type":"LineString","coordinates":[[123.799866,10.339807],[123.799591,10.339579],[123.799252,10.339165],[123.798652,10.338443],[123.798294,10.337845],[123.798247,10.337618],[123.798221,10.337493],[123.798186,10.337328],[123.798209,10.336868],[123.798405,10.336335],[123.798464,10.336175],[123.798744,10.335979],[123.799239,10.335913],[123.799416,10.335957],[123.7995,10.33604],[123.799608,10.336338],[123.799637,10.336416],[123.799865,10.336637],[123.800213,10.336676],[123.800329,10.336617],[123.800437,10.336562],[123.800573,10.336505],[123.801104,10.336487],[123.801737,10.336691],[123.802121,10.33669],[123.802318,10.336663],[123.802501,10.33652],[123.802484,10.336362],[123.802439,10.336195],[123.802327,10.335968],[123.802279,10.335849],[123.801985,10.335246],[123.801882,10.334645],[123.801766,10.334345],[123.801847,10.333924],[123.801924,10.333873],[123.80206,10.333724],[123.802391,10.333452],[123.802543,10.333082],[123.802712,10.332745],[123.802868,10.332532],[123.803097,10.332453],[123.803425,10.332529],[123.803752,10.332763],[123.803949,10.333024],[123.804191,10.333297],[123.80417,10.333402],[123.803853,10.333631],[123.803689,10.333699],[123.803451,10.333965],[123.803358,10.334151],[123.803359,10.334286],[123.803429,10.334418],[123.803612,10.334585],[123.80384,10.334676],[123.804314,10.334793],[123.80468,10.334736],[123.804895,10.334677],[123.80508,10.334611],[123.805468,10.334218],[123.806028,10.333708],[123.806278,10.333601],[123.806526,10.333509],[123.806769,10.333566],[123.806895,10.333713],[123.807054,10.333865],[123.807067,10.334853],[123.807176,10.335014],[123.807341,10.335296],[123.807596,10.335501],[123.807856,10.335524],[123.808101,10.335434],[123.808257,10.335361],[123.808344,10.335176],[123.808448,10.334847],[123.808417,10.334441],[123.808264,10.333967],[123.807948,10.333522],[123.807756,10.333335],[123.80757,10.333086],[123.80705,10.332748],[123.806735,10.332402],[123.806542,10.332123],[123.8065,10.331954],[123.806703,10.331739],[123.807067,10.331524],[123.80749,10.331431],[123.807856,10.331304],[123.808305,10.331283],[123.808561,10.331207],[123.808996,10.330916],[123.809203,10.330546],[123.809196,10.33024],[123.80904,10.330051],[123.808604,10.329758],[123.808349,10.32938],[123.808246,10.328923],[123.808152,10.32853]]}},{"type":"Feature","properties":{"kind":"river","name":"Mananga River"},"geometry":{"type":"LineString","coordinates":[[123.815664,10.310872],[123.814929,10.30959],[123.814815,10.308958],[123.814796,10.307637],[123.814462,10.306494],[123.814195,10.305867],[123.813877,10.305207],[123.813808,10.304891],[123.813424,10.303106],[123.813434,10.301899],[123.814035,10.300359],[123.813945,10.29962],[123.813917,10.299388],[123.814157,10.298321],[123.815379,10.296886],[123.816012,10.296476],[123.816721,10.296007],[123.817483,10.295829],[123.817975,10.295463],[123.81823,10.294809],[123.818187,10.293468],[123.818135,10.292246],[123.817959,10.291648],[123.817833,10.291127],[123.817631,10.290076],[123.81856,10.289283],[123.819006,10.289454],[123.819064,10.28841],[123.81878,10.287319],[123.81867,10.286472],[123.819026,10.28405],[123.819131,10.283713],[123.819785,10.283006],[123.820536,10.282585],[123.820932,10.282468],[123.821228,10.282317],[123.821529,10.282317]]}},{"type":"Feature","properties":{"kind":"stream","name":""},"geometry":{"type":"LineString","coordinates":[[123.841033,10.348085],[123.840685,10.348131],[123.840398,10.348095],[123.840172,10.347998],[123.839955,10.347916],[123.839658,10.347845],[123.839104,10.347714],[123.838506,10.347309],[123.838144,10.347005],[123.83792,10.346997],[123.837683,10.346798],[123.837416,10.346848],[123.836979,10.346597],[123.836722,10.346595],[123.836591,10.346655],[123.836537,10.346813],[123.836474,10.346899],[123.836388,10.34689],[123.83631,10.346724],[123.836198,10.346508],[123.835913,10.346355],[123.835767,10.346184],[123.835591,10.346206],[123.835472,10.346348],[123.835277,10.346412],[123.835111,10.346408],[123.834701,10.346435],[123.83456,10.346402],[123.834514,10.346298],[123.83451,10.346248],[123.834587,10.346054],[123.834563,10.345935],[123.834417,10.345903],[123.83393,10.345923],[123.833825,10.345921],[123.833692,10.345839],[123.833463,10.345538],[123.833427,10.345497],[123.833367,10.345499],[123.833048,10.345702],[123.83288,10.345732],[123.832825,10.345687],[123.832419,10.345184],[123.832269,10.345171],[123.832159,10.345301],[123.832046,10.345308],[123.831807,10.345194],[123.831542,10.34521],[123.831431,10.345108],[123.83142,10.345005],[123.831332,10.34488],[123.831199,10.344823],[123.831066,10.344832],[123.830885,10.344737],[123.83074,10.344341],[123.830728,10.344028],[123.83038,10.343555],[123.830187,10.343465],[123.829966,10.343406],[123.829721,10.343154],[123.829719,10.342904],[123.82965,10.34263],[123.829265,10.342484],[123.828942,10.342324],[123.82853,10.342273],[123.828186,10.342357],[123.827789,10.342542],[123.8278,10.342869],[123.827907,10.343302],[123.827773,10.343634],[123.827548,10.343719],[123.827146,10.343645],[123.826749,10.343355],[123.82663,10.342862],[123.826399,10.342735],[123.826416,10.342304],[123.82618,10.342093],[123.825708,10.342067],[123.825434,10.342194],[123.825102,10.34204],[123.824951,10.342344],[123.824817,10.342387]]}},{"type":"Feature","properties":{"kind":"river","name":"Pinggan River"},"geometry":{"type":"LineString","coordinates":[[123.80929,10.261903],[123.809293,10.261383],[123.809311,10.26124],[123.809423,10.261125],[123.809547,10.260942],[123.809597,10.260432],[123.809594,10.260171],[123.8095,10.260088],[123.809357,10.260123],[123.809169,10.260266],[123.809033,10.260361],[123.808941,10.260353],[123.808857,10.260259],[123.808843,10.259757],[123.808716,10.259638],[123.808524,10.25912],[123.808448,10.258659],[123.808125,10.258203],[123.807999,10.257872],[123.807873,10.257291],[123.80779,10.257054],[123.807777,10.25683],[123.807858,10.256651],[123.808115,10.256342],[123.808137,10.25602],[123.808174,10.255863],[123.808394,10.2555],[123.808455,10.255144],[123.808546,10.254374],[123.808395,10.253581],[123.808425,10.253288],[123.808572,10.252895],[123.808582,10.252427],[123.808664,10.252206],[123.808871,10.252021],[123.808981,10.251719],[123.809072,10.251225],[123.809016,10.250877],[123.808907,10.250444],[123.808919,10.250094],[123.809031,10.249938],[123.809236,10.249999],[123.809397,10.250238],[123.809488,10.250342],[123.809566,10.25034],[123.809623,10.250235],[123.809675,10.250091],[123.809738,10.250026],[123.809859,10.250033],[123.809978,10.249945],[123.810037,10.249727],[123.809994,10.249364],[123.810066,10.249169],[123.810353,10.248843],[123.810368,10.248586],[123.81032,10.248479],[123.810303,10.248333],[123.810361,10.248206],[123.810458,10.248102],[123.810646,10.248174],[123.810853,10.248291],[123.811243,10.248128],[123.811659,10.247585],[123.811721,10.247396],[123.811949,10.246951],[123.812292,10.246459],[123.812625,10.246066],[123.813319,10.245143],[123.813457,10.244927],[123.813642,10.244953],[123.813826,10.24498],[123.814128,10.24502],[123.81419,10.244773],[123.814142,10.24447],[123.814047,10.243727],[123.814059,10.243294],[123.814089,10.243138],[123.814802,10.242447],[123.815042,10.241958],[123.815292,10.241444],[123.815214,10.241152],[123.815184,10.240918],[123.815032,10.240461],[123.815046,10.240239],[123.81506,10.239972],[123.814991,10.239725],[123.81492,10.239154],[123.814778,10.237727]]}},{"type":"Feature","properties":{"kind":"river","name":"Mananga River"},"geometry":{"type":"LineString","coordinates":[[123.831691,10.26632],[123.832175,10.265926],[123.832764,10.265356],[123.833081,10.26508],[123.833953,10.264066],[123.834201,10.263527],[123.834479,10.262734],[123.834496,10.262378],[123.834536,10.262092],[123.834792,10.261249],[123.835068,10.260558],[123.835347,10.260173],[123.835463,10.259689],[123.835522,10.259359],[123.835591,10.258877],[123.835763,10.258365],[123.835826,10.257971],[123.835673,10.257578],[123.83542,10.257237],[123.835043,10.257028],[123.834818,10.256738],[123.834635,10.256194],[123.834531,10.255295],[123.834486,10.254901],[123.834537,10.254305],[123.834488,10.253831],[123.834386,10.25336],[123.834373,10.253158],[123.834473,10.253008],[123.834704,10.252956],[123.835166,10.252515],[123.83561,10.252036],[123.835862,10.251662],[123.836068,10.25098],[123.836179,10.250462],[123.836119,10.250207],[123.83602,10.25],[123.835895,10.24976],[123.835819,10.249597],[123.835746,10.248984],[123.835839,10.248465],[123.835824,10.248177],[123.835972,10.247688],[123.836061,10.247352],[123.836052,10.247219],[123.835958,10.247102],[123.835546,10.246824],[123.835098,10.246518],[123.834596,10.246171],[123.83424,10.245951],[123.83402,10.245599],[123.833925,10.245155],[123.83394,10.2447],[123.834117,10.244062],[123.834414,10.24371],[123.834786,10.243499],[123.835158,10.243466],[123.835729,10.243434],[123.836089,10.243127],[123.836306,10.243078],[123.836566,10.243119],[123.836808,10.243222],[123.83692,10.243233],[123.837119,10.243148],[123.837172,10.243032]]}},{"type":"Feature","properties":{"kind":"river","name":"Mananga River"},"geometry":{"type":"LineString","coordinates":[[123.829781,10.26764],[123.830749,10.267123],[123.831691,10.26632]]}},{"type":"Feature","properties":{"kind":"river","name":"Mananga River"},"geometry":{"type":"LineString","coordinates":[[123.824822,10.275831],[123.824676,10.275537],[123.824723,10.275162],[123.824896,10.274221],[123.825074,10.273071],[123.825281,10.272495],[123.826099,10.271433],[123.827075,10.270511],[123.827648,10.269684],[123.82883,10.268384],[123.829781,10.26764]]}},{"type":"Feature","properties":{"kind":"stream","name":""},"geometry":{"type":"LineString","coordinates":[[123.816096,10.257256],[123.816142,10.257077],[123.815489,10.255984],[123.81548,10.255653],[123.815754,10.255061],[123.815773,10.25486],[123.815913,10.254402],[123.815854,10.25419],[123.816032,10.253757],[123.816009,10.253405],[123.816057,10.253237],[123.815952,10.253066],[123.815854,10.252728],[123.815675,10.252465],[123.815746,10.25186],[123.815906,10.251735],[123.815808,10.250819],[123.815587,10.250426],[123.815526,10.250182],[123.815292,10.24994],[123.815059,10.249539]]}},{"type":"Feature","properties":{"kind":"stream","name":""},"geometry":{"type":"LineString","coordinates":[[123.800257,10.239543],[123.800237,10.239348],[123.800294,10.239259],[123.800711,10.23917],[123.800978,10.238907],[123.801259,10.238721],[123.801645,10.238464],[123.802122,10.238284]]}},{"type":"Feature","properties":{"kind":"river","name":"Abuno River"},"geometry":{"type":"LineString","coordinates":[[123.750206,10.278692],[123.750329,10.278592],[123.750531,10.278592],[123.750852,10.278746],[123.751083,10.278846],[123.751277,10.278853],[123.751493,10.278463],[123.751542,10.27792],[123.751649,10.277428],[123.751809,10.277165],[123.752186,10.276984],[123.752497,10.276914],[123.753007,10.276821],[123.753477,10.276644],[123.753698,10.276419],[123.753749,10.276191],[123.753518,10.275456],[123.753468,10.275192],[123.753528,10.275055],[123.75372,10.275073],[123.753875,10.275062],[123.754108,10.275044],[123.754316,10.275053],[123.754536,10.275063],[123.75502,10.275028],[123.755292,10.274974],[123.755517,10.274839],[123.755648,10.274552],[123.755572,10.274263],[123.755405,10.274042],[123.755366,10.273992],[123.755073,10.273312],[123.754859,10.27258],[123.75481,10.272288],[123.754798,10.272218],[123.754765,10.272025],[123.754812,10.271688],[123.75485,10.271409],[123.755055,10.27101],[123.755421,10.2708],[123.755648,10.270543],[123.755797,10.270405],[123.75584,10.270146],[123.755861,10.269803],[123.755845,10.269438],[123.755804,10.269293],[123.755654,10.269159],[123.755358,10.268966],[123.755061,10.268714],[123.755008,10.268452],[123.755149,10.268036],[123.755729,10.267507],[123.756254,10.267063],[123.756599,10.266567],[123.756754,10.265691],[123.756761,10.265653],[123.756829,10.265464],[123.757011,10.265427],[123.757249,10.265476],[123.757338,10.265498],[123.757374,10.26566],[123.757421,10.265738],[123.757772,10.265887],[123.758105,10.265948],[123.758356,10.265888],[123.758627,10.265739],[123.758678,10.265497],[123.758681,10.265195],[123.758866,10.264933],[123.759,10.264466],[123.758925,10.264122],[123.758677,10.263883],[123.75834,10.263804],[123.758218,10.263807],[123.757807,10.263634],[123.757576,10.263477],[123.757475,10.263201],[123.757576,10.262871],[123.757958,10.262596],[123.758713,10.262436],[123.758921,10.262359],[123.759143,10.262193],[123.759444,10.262084],[123.759744,10.262103],[123.760059,10.261999],[123.760725,10.2618],[123.760875,10.261762],[123.761031,10.261655],[123.761182,10.261432],[123.761296,10.260999],[123.761296,10.260699],[123.76149,10.260202],[123.761617,10.260013],[123.762249,10.260043],[123.763113,10.259963],[123.763314,10.25971],[123.763819,10.259587],[123.764089,10.2594],[123.764458,10.259273],[123.764947,10.259013],[123.765123,10.258998],[123.765227,10.259071],[123.76536,10.259277],[123.765538,10.259394],[123.765883,10.259543],[123.76627,10.259552],[123.76655,10.259443],[123.766747,10.259284],[123.767056,10.258551],[123.767167,10.258311],[123.767433,10.258224],[123.767514,10.258191],[123.767841,10.258255],[123.768095,10.258183],[123.768487,10.258022],[123.768887,10.257766],[123.76903,10.257711],[123.769212,10.257592],[123.769804,10.257601],[123.769927,10.2576],[123.770135,10.25742],[123.77018,10.25701],[123.770185,10.256409],[123.77029,10.256015],[123.770323,10.255601],[123.770293,10.255227],[123.77006,10.254792],[123.769847,10.254543],[123.769567,10.254393],[123.769312,10.254279],[123.769158,10.25427],[123.769056,10.254221],[123.769004,10.254115],[123.769033,10.253982],[123.76927,10.253766],[123.769907,10.253502],[123.77045,10.253245],[123.770736,10.253073],[123.77089,10.252928],[123.771037,10.252852],[123.771422,10.252679],[123.771635,10.252523],[123.771758,10.252391],[123.771729,10.252187],[123.771717,10.25196],[123.771018,10.251607],[123.770723,10.251448],[123.770591,10.251314],[123.770554,10.251179],[123.770602,10.250926],[123.770847,10.250541],[123.771027,10.25046],[123.771487,10.249935],[123.771736,10.249577],[123.77221,10.24918],[123.772578,10.248929],[123.773031,10.248741],[123.773697,10.24849],[123.77398,10.248372],[123.774446,10.248296],[123.775048,10.248142],[123.775208,10.248082],[123.775621,10.247736],[123.77582,10.247556],[123.776046,10.247264],[123.776193,10.247075],[123.776368,10.246839]]}},{"type":"Feature","properties":{"kind":"canal","name":""},"geometry":{"type":"LineString","coordinates":[[123.786097,10.233716],[123.786344,10.23355],[123.786396,10.233524],[123.786534,10.233457],[123.787466,10.23293],[123.787771,10.232459]]}},{"type":"Feature","properties":{"kind":"river","name":"Mananga River"},"geometry":{"type":"LineString","coordinates":[[123.808152,10.32853],[123.808248,10.328111],[123.808489,10.327722],[123.809052,10.327363],[123.809397,10.327368],[123.809752,10.327772],[123.809815,10.328026],[123.809766,10.328454],[123.809807,10.328733],[123.810048,10.328832],[123.810257,10.328798],[123.810456,10.328796],[123.810916,10.329012],[123.811588,10.329223],[123.811997,10.329157],[123.812516,10.328775],[123.813109,10.328226],[123.813703,10.327725],[123.814038,10.327548],[123.814151,10.3275],[123.814426,10.3276],[123.814509,10.3278],[123.814343,10.328438],[123.814331,10.328787],[123.814554,10.329134],[123.814758,10.329294],[123.815388,10.329491],[123.815969,10.329577],[123.816192,10.329415],[123.816227,10.328959],[123.816244,10.328668],[123.816125,10.328071],[123.81616,10.327833],[123.816283,10.327655],[123.816577,10.327491],[123.816729,10.327466],[123.817007,10.327344],[123.817323,10.327031],[123.817392,10.326777],[123.8175,10.326617],[123.817856,10.326449],[123.818206,10.326386],[123.818822,10.326125],[123.819559,10.325582],[123.820132,10.324843],[123.820719,10.324069],[123.820907,10.323805],[123.82091,10.3236],[123.820666,10.323136],[123.820597,10.322856],[123.820358,10.322615],[123.820161,10.322366],[123.819943,10.322077],[123.819955,10.321893],[123.820046,10.321786],[123.82057,10.321547],[123.820997,10.321116],[123.821182,10.320479],[123.821314,10.32006],[123.821183,10.319791],[123.820943,10.319643],[123.82076,10.319604],[123.820579,10.319566],[123.819978,10.319392],[123.819112,10.318938],[123.818687,10.31868],[123.818094,10.318098],[123.8179,10.317852],[123.817875,10.317465],[123.818013,10.316949],[123.817271,10.313626],[123.816993,10.312761],[123.815664,10.310872]]}},{"type":"Feature","properties":{"kind":"river","name":"Mananga River"},"geometry":{"type":"LineString","coordinates":[[123.825821,10.364084],[123.82571,10.364014],[123.825485,10.363692],[123.825352,10.363136],[123.825191,10.362645],[123.825081,10.362079],[123.82504,10.361234],[123.825069,10.360333],[123.825038,10.360064],[123.824751,10.359708],[123.824482,10.359594],[123.823589,10.359856],[123.822777,10.360339],[123.822195,10.360589],[123.821649,10.36072],[123.821141,10.360591],[123.820961,10.360443],[123.820694,10.360004],[123.82061,10.359708],[123.820394,10.359273],[123.820212,10.358942],[123.820058,10.358447],[123.820015,10.358],[123.820183,10.35779],[123.82061,10.357667],[123.820811,10.357567],[123.820983,10.357411],[123.820932,10.357052],[123.820604,10.356628],[123.82001,10.356242],[123.819345,10.356075],[123.818722,10.356034],[123.818068,10.355639],[123.817406,10.355341],[123.816914,10.354691],[123.816427,10.354226],[123.815925,10.354021],[123.815504,10.353801],[123.815115,10.353627],[123.814695,10.353553],[123.814328,10.353322],[123.813829,10.353024],[123.8134,10.352572],[123.813215,10.351595],[123.813023,10.350254],[123.812943,10.349599],[123.812826,10.349232],[123.812587,10.348898],[123.812328,10.348705],[123.81201,10.348661],[123.811371,10.348795],[123.810494,10.348991],[123.810166,10.348957],[123.809705,10.348728],[123.808818,10.347995],[123.807893,10.347489],[123.807496,10.347433],[123.807063,10.347449],[123.806202,10.34731],[123.805422,10.34697],[123.804427,10.346923],[123.804092,10.346985],[123.803928,10.346948],[123.803505,10.346629],[123.803189,10.34608],[123.802493,10.344942],[123.801643,10.343206],[123.801284,10.342464],[123.800785,10.341813],[123.800519,10.341361],[123.800336,10.341128],[123.800136,10.340867],[123.799866,10.339807]]}},{"type":"Feature","properties":{"kind":"stream","name":""},"geometry":{"type":"LineString","coordinates":[[123.877771,10.302684],[123.877597,10.302651],[123.877366,10.302527],[123.877002,10.302403],[123.876647,10.302282],[123.87663,10.302276],[123.876629,10.30226]]}},{"type":"Feature","properties":{"kind":"stream","name":"Buhisan Creek"},"geometry":{"type":"LineString","coordinates":[[123.841572,10.328964],[123.841712,10.3289],[123.842049,10.328983],[123.842217,10.328946],[123.842315,10.328996],[123.842408,10.329166],[123.84252,10.32924],[123.842646,10.329199],[123.842941,10.329038],[123.843109,10.329033],[123.843403,10.328987],[123.843543,10.328964],[123.843683,10.329024],[123.843744,10.329033],[123.843837,10.328946],[123.844043,10.328872],[123.844248,10.328836],[123.844426,10.328872],[123.844486,10.32884],[123.844589,10.328721],[123.844757,10.328638],[123.845033,10.328583],[123.84514,10.328431],[123.845252,10.328427],[123.845383,10.328404],[123.845462,10.328289],[123.845486,10.32782],[123.845561,10.327659],[123.845804,10.327545],[123.846056,10.327408],[123.846584,10.327586],[123.847232,10.327554],[123.847725,10.327443],[123.848295,10.327389],[123.848502,10.327285],[123.848595,10.326973],[123.848604,10.326834],[123.848882,10.326543],[123.849048,10.326257],[123.849012,10.325901],[123.849007,10.325885],[123.848907,10.325598],[123.848906,10.325416],[123.84883,10.324626],[123.848926,10.323823],[123.849203,10.323119],[123.848996,10.322573],[123.848864,10.322431],[123.848672,10.322446],[123.848408,10.322517],[123.848147,10.322535],[123.847922,10.322408],[123.847661,10.322169],[123.847298,10.322021],[123.846905,10.321791],[123.846698,10.321496],[123.84659,10.321195],[123.846602,10.321071],[123.846704,10.321029],[123.846935,10.320958],[123.847154,10.320672],[123.847397,10.320129],[123.847402,10.319936],[123.84751,10.319828],[123.847587,10.319836],[123.84768,10.319868],[123.847814,10.319955],[123.848051,10.320014],[123.848412,10.319931],[123.848846,10.31976],[123.849095,10.319503],[123.849091,10.319202],[123.849221,10.318865],[123.84941,10.318553],[123.849576,10.31821],[123.849698,10.317956],[123.849845,10.31736],[123.849484,10.316777],[123.849388,10.316653]]}},{"type":"Feature","properties":{"kind":"river","name":"Mananga River"},"geometry":{"type":"LineString","coordinates":[[123.821529,10.282317],[123.822184,10.282445],[123.822775,10.282474],[123.823446,10.282272],[123.823858,10.281887],[123.823937,10.281602],[123.823843,10.280992],[123.824045,10.280551],[123.824273,10.28046],[123.825222,10.280309],[123.82565,10.280367],[123.826038,10.280321],[123.826524,10.280084],[123.826708,10.27975],[123.826892,10.279063],[123.826732,10.278531],[123.826184,10.277766],[123.825662,10.276959],[123.824822,10.275831]]}},{"type":"Feature","properties":{"kind":"river","name":"Bulacao River"},"geometry":{"type":"LineString","coordinates":[[123.826947,10.293797],[123.82703,10.293444],[123.827303,10.29321],[123.827674,10.293114],[123.828,10.293053],[123.828196,10.292962],[123.828259,10.292755],[123.828232,10.292291],[123.828517,10.291716],[123.82908,10.290936],[123.829706,10.290381],[123.830137,10.290078],[123.830641,10.289803],[123.830944,10.289377],[123.831282,10.288805],[123.831614,10.287768],[123.831944,10.287392],[123.832457,10.287097],[123.832911,10.28698],[123.833659,10.286697],[123.834071,10.286297],[123.834309,10.285909],[123.834196,10.285202],[123.834068,10.284811],[123.83408,10.284545],[123.834234,10.284262],[123.834608,10.284163],[123.835302,10.284116],[123.835543,10.284023],[123.835617,10.283883],[123.836136,10.283272],[123.83632,10.282691],[123.836466,10.281877],[123.836652,10.281646],[123.837003,10.281667],[123.837424,10.281921],[123.837682,10.282049],[123.837848,10.282014],[123.837925,10.281865],[123.83805,10.281346],[123.838463,10.280969],[123.839097,10.280674],[123.839758,10.280463],[123.84065,10.280329],[123.841161,10.280672],[123.841421,10.280805],[123.841721,10.280711],[123.841948,10.280634],[123.842112,10.280515],[123.842343,10.280353],[123.84294,10.2797],[123.843252,10.279197],[123.843595,10.278898],[123.843637,10.278861],[123.843717,10.278792],[123.844246,10.278595],[123.844487,10.278412],[123.844972,10.277624],[123.845243,10.277229],[123.845362,10.277064],[123.845432,10.276853],[123.845498,10.276627],[123.845539,10.276301],[123.845593,10.276192],[123.845684,10.276148],[123.845835,10.276128],[123.846126,10.276057],[123.846316,10.275986],[123.846605,10.27568],[123.84666,10.275469],[123.846753,10.275191],[123.846842,10.274455],[123.847037,10.274219],[123.84742,10.274068],[123.847523,10.273865],[123.847644,10.27281],[123.847673,10.272696],[123.847559,10.2726],[123.847204,10.272533],[123.847073,10.272481],[123.84709,10.272307],[123.847543,10.270822],[123.847644,10.270365],[123.84776,10.270158],[123.847948,10.270053],[123.848194,10.269935],[123.848449,10.269857],[123.84905,10.269803],[123.849301,10.269773],[123.849855,10.269355],[123.850148,10.269097],[123.850237,10.269018],[123.850629,10.268766],[123.85083,10.268694],[123.851179,10.268546],[123.851906,10.268166],[123.852655,10.267788],[123.853363,10.267345],[123.854041,10.266916],[123.854264,10.26675],[123.854431,10.266466],[123.854554,10.266213],[123.85459,10.265959],[123.854673,10.265809],[123.854878,10.26564],[123.855146,10.265526],[123.855368,10.26551],[123.855579,10.265425],[123.855887,10.265288],[123.856148,10.265239],[123.856982,10.265265],[123.85769,10.26534],[123.858269,10.265405],[123.858599,10.26547],[123.858732,10.265435],[123.859175,10.265148],[123.85981,10.264849],[123.859959,10.264764],[123.860151,10.264764],[123.860333,10.264784],[123.860485,10.264751],[123.860713,10.264654],[123.860915,10.264673],[123.861246,10.264696],[123.861355,10.264761],[123.86159,10.26467],[123.861705,10.264562],[123.861841,10.264413],[123.861973,10.264364],[123.862192,10.264348],[123.862714,10.26437],[123.86284,10.264299],[123.863473,10.264164]]}},{"type":"Feature","properties":{"kind":"river","name":""},"geometry":{"type":"LineString","coordinates":[[123.788812,10.325489],[123.789108,10.325698],[123.789575,10.325849],[123.789856,10.325748],[123.790207,10.325748],[123.790279,10.325807],[123.790323,10.32593],[123.790546,10.326007],[123.790764,10.326224],[123.790862,10.326318],[123.791204,10.326465],[123.791466,10.326628],[123.791741,10.326666],[123.791971,10.326591],[123.792112,10.326647],[123.792348,10.326641],[123.792546,10.326767],[123.792808,10.326785],[123.79307,10.326911],[123.793358,10.3272],[123.793569,10.327295],[123.79385,10.327269],[123.794348,10.327295],[123.794827,10.327471],[123.795128,10.327477],[123.795748,10.327137],[123.795959,10.327137],[123.796048,10.327288],[123.796259,10.327295],[123.796534,10.327534],[123.79677,10.327634],[123.797045,10.327552],[123.79723,10.327439],[123.797658,10.327546],[123.797946,10.327515],[123.798489,10.327452],[123.798694,10.327546],[123.799039,10.327917],[123.799218,10.327986],[123.799441,10.327879],[123.80033,10.327276],[123.800732,10.327188],[123.801045,10.327288],[123.801275,10.327131],[123.801441,10.326823],[123.801486,10.326534],[123.80164,10.32644],[123.801876,10.326521],[123.802081,10.326949],[123.8024,10.327213],[123.802566,10.327188],[123.802803,10.327131],[123.802969,10.327213],[123.803148,10.327439],[123.803327,10.327521],[123.803672,10.327502],[123.803819,10.327307],[123.803934,10.327219],[123.804177,10.327295],[123.804317,10.327848],[123.804419,10.328043],[123.804605,10.328074],[123.804713,10.327936],[123.80479,10.327703],[123.804937,10.32749],[123.805301,10.32749],[123.805659,10.327823],[123.8058,10.328194],[123.805876,10.328363],[123.806036,10.328376],[123.806228,10.328313],[123.806458,10.328319],[123.806682,10.328275],[123.806746,10.328143],[123.806694,10.327942],[123.806714,10.327798],[123.807135,10.327873],[123.807385,10.327993],[123.807385,10.328206],[123.807391,10.328495],[123.80748,10.328684],[123.807691,10.32876],[123.808004,10.328665],[123.808152,10.32853]]}},{"type":"Feature","properties":{"kind":"stream","name":""},"geometry":{"type":"LineString","coordinates":[[123.8383,10.290894],[123.840031,10.289733],[123.84142,10.288303],[123.841941,10.287156],[123.842061,10.286898],[123.842129,10.286498],[123.842048,10.286017],[123.841761,10.285663],[123.841611,10.285225],[123.841615,10.284799],[123.841714,10.284301],[123.841534,10.283024],[123.841465,10.282025],[123.841354,10.281253],[123.841421,10.280805]]}},{"type":"Feature","properties":{"kind":"stream","name":"Bulacao River"},"geometry":{"type":"LineString","coordinates":[[123.830343,10.323305],[123.830114,10.322747],[123.830025,10.322463],[123.829996,10.322125],[123.82991,10.322018],[123.829667,10.321996],[123.829514,10.321907],[123.829377,10.321771],[123.829333,10.321509],[123.829363,10.321376],[123.829617,10.321071],[123.829647,10.320974],[123.829601,10.320892],[123.829488,10.320849],[123.828773,10.320729],[123.828553,10.320658],[123.828252,10.320328],[123.828009,10.319322],[123.827918,10.319213],[123.827676,10.319208],[123.82759,10.319015],[123.827617,10.31876],[123.827443,10.318511],[123.827324,10.317897],[123.826965,10.317454],[123.826455,10.317243],[123.826082,10.316813],[123.826008,10.316581],[123.826078,10.316412],[123.826365,10.316079],[123.826429,10.315843],[123.826352,10.315679],[123.826146,10.315683],[123.825885,10.316016],[123.825722,10.316033],[123.825576,10.315877],[123.825568,10.315637],[123.82576,10.314903],[123.825861,10.314701],[123.825821,10.314574],[123.825572,10.314182],[123.825542,10.313942],[123.825542,10.31347],[123.825362,10.31315],[123.82525,10.312841],[123.825212,10.31261],[123.825306,10.312192],[123.825756,10.311416],[123.825825,10.311024],[123.825812,10.310847],[123.825876,10.310763],[123.826189,10.310687],[123.827123,10.310097],[123.82747,10.309612],[123.827586,10.309237],[123.82768,10.309233],[123.827843,10.30925],[123.82802,10.309072],[123.829075,10.308782],[123.82975,10.308468],[123.830401,10.308295],[123.831005,10.307947],[123.831263,10.307647]]}},{"type":"Feature","properties":{"kind":"river","name":""},"geometry":{"type":"LineString","coordinates":[[123.776149,10.309697],[123.776093,10.310043],[123.775908,10.310217],[123.775543,10.310432],[123.775447,10.31061],[123.775466,10.310845],[123.77537,10.31097],[123.775351,10.311143],[123.775235,10.311213],[123.775017,10.311413],[123.774895,10.311412],[123.774744,10.311258],[123.774684,10.31125],[123.774565,10.311321],[123.774389,10.311307],[123.774207,10.311395],[123.774244,10.311596],[123.774235,10.311836],[123.774041,10.311938],[123.773824,10.312191],[123.773313,10.312409],[123.773304,10.313205],[123.773187,10.313392],[123.773078,10.313436],[123.772741,10.31362],[123.772586,10.313827],[123.772404,10.31391],[123.772084,10.314195],[123.771952,10.314376],[123.771754,10.314374],[123.771443,10.31441],[123.77123,10.314405],[123.77081,10.314116],[123.770661,10.31405],[123.770575,10.31409],[123.770543,10.314276],[123.770552,10.314814],[123.770483,10.315307]]}},{"type":"Feature","properties":{"kind":"stream","name":""},"geometry":{"type":"LineString","coordinates":[[123.786203,10.356208],[123.786461,10.355902],[123.787137,10.355269],[123.787276,10.354878],[123.787255,10.354424],[123.787298,10.354203],[123.787233,10.353612],[123.787416,10.352979],[123.787169,10.352493],[123.787212,10.352292],[123.787534,10.352229],[123.78777,10.352113],[123.787834,10.351923],[123.788135,10.351817],[123.788682,10.351511],[123.788757,10.351131],[123.789165,10.35082],[123.789505,10.35062],[123.790049,10.350544],[123.79037,10.350389],[123.790778,10.349764],[123.791316,10.349289],[123.792144,10.348956],[123.792743,10.348486],[123.793225,10.347545],[123.794025,10.347276],[123.79442,10.346989],[123.794746,10.346153],[123.795296,10.345609],[123.795391,10.345498],[123.795311,10.345319],[123.795253,10.345197],[123.795279,10.345036],[123.795404,10.344967],[123.795672,10.344986],[123.795838,10.344948],[123.795854,10.344854],[123.795812,10.344706],[123.795771,10.344574],[123.795822,10.344448],[123.796026,10.344373],[123.796279,10.344247],[123.796375,10.344093],[123.796419,10.343889],[123.796621,10.343785],[123.796697,10.343703],[123.796963,10.343571],[123.797183,10.343619],[123.797349,10.343578],[123.797599,10.343474],[123.797777,10.343458],[123.797797,10.343376],[123.797761,10.343263],[123.797825,10.343128],[123.798222,10.342707],[123.79825,10.342408],[123.798678,10.341758],[123.799097,10.341509],[123.799298,10.341403],[123.799781,10.341286],[123.799904,10.341175],[123.80005,10.341053],[123.800136,10.340867]]}},{"type":"Feature","properties":{"kind":"stream","name":""},"geometry":{"type":"LineString","coordinates":[[123.817664,10.328756],[123.817458,10.328765],[123.817226,10.328548],[123.817016,10.328467],[123.816893,10.328111],[123.816733,10.327617]]}},{"type":"Feature","properties":{"kind":"stream","name":""},"geometry":{"type":"LineString","coordinates":[[123.824817,10.342387],[123.824643,10.342397],[123.824427,10.342407],[123.8243,10.342358],[123.824249,10.342207],[123.824134,10.341911],[123.824009,10.341697],[123.823886,10.34165],[123.823756,10.341704],[123.823634,10.3418],[123.823542,10.341886],[123.823403,10.34191],[123.822901,10.341615],[123.82289,10.341463],[123.822924,10.34089],[123.822978,10.340471],[123.823094,10.340294],[123.823041,10.340025],[123.822903,10.339862],[123.822586,10.339887],[123.822223,10.340096],[123.8219,10.340291],[123.821707,10.340205],[123.821747,10.339955],[123.822017,10.33951],[123.822,10.339246],[123.821848,10.338923],[123.821423,10.338316],[123.821096,10.338086],[123.820594,10.337852],[123.819984,10.337657],[123.819808,10.337529],[123.819747,10.337195],[123.819715,10.336713],[123.81975,10.336488],[123.819829,10.336412],[123.819912,10.336406],[123.819992,10.33649],[123.820142,10.33671],[123.820298,10.336751],[123.820441,10.336693],[123.820601,10.336482],[123.820581,10.336295],[123.820382,10.335947],[123.819984,10.3356],[123.819852,10.335243],[123.819883,10.334968],[123.820093,10.33452],[123.820132,10.334276],[123.820002,10.333967],[123.81971,10.333737],[123.819638,10.333566],[123.819726,10.333393],[123.819788,10.333007],[123.819796,10.332659],[123.819892,10.332328],[123.819752,10.332111],[123.819175,10.331336],[123.819036,10.331149],[123.818686,10.330872],[123.818406,10.330737],[123.818319,10.330444],[123.818438,10.330243],[123.818672,10.329882],[123.818562,10.329687],[123.818344,10.329485],[123.81817,10.329325],[123.817664,10.328756],[123.817104,10.327814],[123.816733,10.327617],[123.816729,10.327466]]}},{"type":"Feature","properties":{"kind":"river","name":""},"geometry":{"type":"LineString","coordinates":[[123.848549,10.313525],[123.848572,10.313467]]}},{"type":"Feature","properties":{"kind":"river","name":""},"geometry":{"type":"LineString","coordinates":[[123.779016,10.282073],[123.778659,10.281997],[123.7786,10.281843]]}},{"type":"Feature","properties":{"kind":"river","name":""},"geometry":{"type":"LineString","coordinates":[[123.796657,10.281738],[123.796788,10.281687],[123.796781,10.28138],[123.79663,10.281235],[123.796458,10.281056],[123.796448,10.280931],[123.796638,10.2808],[123.796907,10.280627],[123.797375,10.280409],[123.797743,10.2801],[123.797835,10.279758],[123.797867,10.279456],[123.797827,10.279184],[123.797573,10.278609],[123.797521,10.278267],[123.797587,10.277941],[123.797774,10.277683],[123.798156,10.277497],[123.798764,10.277064],[123.798961,10.276743],[123.799171,10.276424],[123.799607,10.27611],[123.799668,10.275991],[123.799627,10.275849],[123.799454,10.275688],[123.799064,10.275502],[123.798731,10.275284],[123.798594,10.274938],[123.798615,10.274441],[123.798755,10.274005],[123.798993,10.273515],[123.799104,10.273222],[123.799324,10.272975],[123.799551,10.27285],[123.799864,10.272825],[123.800045,10.272793],[123.800164,10.272662],[123.800283,10.272419],[123.800424,10.272223],[123.800534,10.271999],[123.80045,10.271562],[123.80037,10.271386],[123.800186,10.271119],[123.800175,10.270875],[123.800328,10.270561],[123.800577,10.269883],[123.800744,10.269577],[123.800995,10.269435],[123.801261,10.269371],[123.801377,10.269257],[123.801489,10.269017],[123.801544,10.268639],[123.801465,10.268358],[123.801467,10.26801],[123.801491,10.267828],[123.801383,10.267599],[123.801238,10.267379],[123.800923,10.267203],[123.800707,10.267013],[123.80031,10.266633],[123.799932,10.266398],[123.799699,10.266241],[123.799395,10.266116],[123.799121,10.265885],[123.799033,10.26581],[123.798806,10.265711],[123.798518,10.265684],[123.798312,10.265552],[123.798234,10.265427],[123.798313,10.265169],[123.79821,10.264865],[123.798105,10.264694],[123.79785,10.264521],[123.797423,10.264253],[123.797218,10.264192]]}},{"type":"Feature","properties":{"kind":"stream","name":""},"geometry":{"type":"LineString","coordinates":[[123.767277,10.285728],[123.767582,10.285872],[123.767843,10.286095],[123.768062,10.286159],[123.768457,10.286062],[123.769131,10.285791],[123.769624,10.285715],[123.769835,10.285517],[123.769938,10.285238],[123.769993,10.284736],[123.770036,10.284457],[123.770178,10.284347],[123.770384,10.284351],[123.770757,10.284491],[123.770998,10.284474],[123.771328,10.28455],[123.77138,10.284664],[123.771178,10.28509],[123.771169,10.285327],[123.771225,10.28542],[123.771367,10.285428],[123.771796,10.285415],[123.772032,10.285344],[123.772105,10.285247],[123.772036,10.285044],[123.771895,10.284562],[123.771899,10.284136],[123.771959,10.284026],[123.772246,10.283874],[123.772345,10.283903],[123.772457,10.284055],[123.772646,10.284186],[123.772826,10.28419],[123.773105,10.284043],[123.773199,10.284026],[123.773345,10.284106],[123.773491,10.284136],[123.773628,10.284106],[123.77377,10.284212],[123.773869,10.284448],[123.773787,10.284626],[123.773826,10.284685],[123.774002,10.285027],[123.773997,10.285242],[123.774057,10.285322],[123.774203,10.285326],[123.774525,10.285158],[123.774693,10.285208],[123.77471,10.285103],[123.77492,10.284959],[123.774923,10.284823],[123.77489,10.28461],[123.775016,10.284528],[123.775174,10.284382],[123.775193,10.284164],[123.775151,10.284038],[123.775093,10.28393],[123.7751,10.283829],[123.775244,10.283727],[123.775469,10.28368],[123.775515,10.283547],[123.775521,10.28337],[123.775617,10.283161]]}},{"type":"Feature","properties":{"kind":"stream","name":""},"geometry":{"type":"LineString","coordinates":[[123.775617,10.283161],[123.775688,10.28311],[123.775807,10.28306],[123.776029,10.283154],[123.776065,10.283287],[123.776171,10.283449],[123.776283,10.283458],[123.776576,10.283598],[123.77683,10.283648],[123.777152,10.283588],[123.777387,10.283639],[123.777538,10.283639],[123.777638,10.283537],[123.777741,10.283284],[123.778075,10.282914],[123.77821,10.282705],[123.778152,10.282528],[123.778062,10.282293],[123.778307,10.281983],[123.778396,10.281932]]}},{"type":"Feature","properties":{"kind":"river","name":""},"geometry":{"type":"LineString","coordinates":[[123.789155,10.297471],[123.789217,10.297106],[123.789804,10.29717],[123.790551,10.296851],[123.790466,10.296502],[123.79063,10.296338],[123.790593,10.296135],[123.790319,10.295958],[123.790115,10.295697],[123.79021,10.295489],[123.790621,10.295172],[123.790684,10.295082],[123.791071,10.294989],[123.791269,10.29483],[123.791343,10.294603],[123.791227,10.294398],[123.791113,10.29394],[123.791131,10.293229],[123.791205,10.293093],[123.791205,10.292973],[123.791087,10.292849],[123.791073,10.292692],[123.791187,10.292612],[123.791252,10.29246],[123.791176,10.291859],[123.791342,10.291351],[123.791354,10.291129],[123.79129,10.290939]]}},{"type":"Feature","properties":{"kind":"stream","name":""},"geometry":{"type":"LineString","coordinates":[[123.777845,10.300014],[123.778055,10.299599],[123.778082,10.29948],[123.778058,10.299126],[123.77819,10.298612],[123.778469,10.298242],[123.778539,10.298067],[123.778511,10.297431],[123.778492,10.296882],[123.778426,10.296741],[123.778252,10.296314],[123.778113,10.29585],[123.777981,10.295587],[123.777981,10.29511],[123.777799,10.294817],[123.777625,10.29436],[123.777493,10.294181],[123.777269,10.294158],[123.776906,10.294125],[123.776847,10.294047],[123.776893,10.293697],[123.777065,10.29344],[123.777102,10.292866],[123.777163,10.292746],[123.77734,10.2928],[123.777501,10.29292],[123.777598,10.29292],[123.777694,10.292759],[123.777549,10.292626],[123.777553,10.292515],[123.777649,10.292407],[123.777659,10.292183],[123.777183,10.291097],[123.777179,10.290521],[123.777032,10.290271],[123.777141,10.289929],[123.777086,10.289704],[123.776867,10.289673],[123.776716,10.28948],[123.776591,10.289207],[123.776739,10.289062],[123.777118,10.289163],[123.777627,10.288967],[123.77789,10.288869],[123.778029,10.288657],[123.77817,10.288578],[123.778212,10.288388],[123.778263,10.288128],[123.778987,10.28772],[123.779389,10.287245],[123.77966,10.287068],[123.779808,10.286808],[123.779843,10.286549],[123.77974,10.286239],[123.779804,10.285979],[123.77992,10.285761],[123.779914,10.285618],[123.779557,10.285277],[123.77938,10.285172],[123.779158,10.285153],[123.778823,10.285375],[123.778711,10.285381],[123.77863,10.285286],[123.778698,10.28503],[123.778894,10.284783],[123.779235,10.284726],[123.779357,10.284564],[123.779177,10.284134],[123.779126,10.283877],[123.779196,10.28382],[123.779447,10.283795],[123.779534,10.283722],[123.779669,10.283222],[123.779544,10.282488],[123.779351,10.282257],[123.779016,10.282073]]}},{"type":"Feature","properties":{"kind":"stream","name":""},"geometry":{"type":"LineString","coordinates":[[123.774131,10.282629],[123.774373,10.282857],[123.774488,10.283018],[123.774627,10.28298],[123.774778,10.28298],[123.774884,10.283025],[123.775116,10.283177],[123.775386,10.283154],[123.775617,10.283161]]}},{"type":"Feature","properties":{"kind":"stream","name":""},"geometry":{"type":"LineString","coordinates":[[123.798421,10.304176],[123.798657,10.303833],[123.798959,10.303678],[123.799176,10.303295],[123.799543,10.303106],[123.799779,10.302945],[123.799949,10.302744],[123.799949,10.302525],[123.800071,10.302438],[123.80015,10.302361],[123.800118,10.302234],[123.799971,10.302132],[123.799902,10.302018],[123.79966,10.30174],[123.799732,10.301399],[123.799864,10.301177],[123.799836,10.300871],[123.799795,10.300512],[123.799631,10.300064],[123.799688,10.299662],[123.799694,10.299176],[123.799553,10.298945],[123.799339,10.298772],[123.799304,10.298478],[123.799436,10.298156],[123.799546,10.297816],[123.799424,10.297593],[123.799295,10.296907],[123.799342,10.296505],[123.799452,10.295939],[123.799631,10.295504],[123.799223,10.294839],[123.79878,10.294304],[123.798553,10.293757],[123.798296,10.293311],[123.798384,10.292879],[123.798704,10.292532],[123.798692,10.292291],[123.798443,10.291988],[123.798296,10.291221],[123.798431,10.290881],[123.798641,10.290792],[123.79889,10.290755],[123.799367,10.290782],[123.799653,10.29077],[123.799735,10.290659],[123.799707,10.290563],[123.799483,10.290374],[123.799411,10.290105],[123.799534,10.289892],[123.799999,10.289524],[123.800216,10.289342],[123.800451,10.288556],[123.80053,10.287895],[123.800546,10.287678],[123.800697,10.287548],[123.800876,10.287607],[123.801136,10.287607],[123.801382,10.287403],[123.801592,10.287267],[123.802705,10.286911],[123.803531,10.286686],[123.804147,10.286423],[123.804615,10.28582],[123.805027,10.285273],[123.805291,10.28518],[123.805495,10.285232],[123.806199,10.285427],[123.806428,10.28544],[123.80656,10.285263],[123.806664,10.284379],[123.807053,10.28373],[123.807252,10.283312],[123.807578,10.283207],[123.807867,10.283229],[123.808273,10.283121],[123.808568,10.282836],[123.808973,10.282672],[123.809728,10.282023],[123.81013,10.281751],[123.810212,10.281534],[123.810133,10.28129],[123.809759,10.280959],[123.809753,10.280678],[123.809831,10.280418],[123.810007,10.280183],[123.81023,10.2801],[123.810491,10.279911],[123.810582,10.279577],[123.810469,10.279333],[123.809989,10.279015],[123.809869,10.278916],[123.80986,10.278687],[123.809891,10.27839],[123.809731,10.277815],[123.80964,10.277425],[123.80964,10.276782],[123.809655,10.276374],[123.809589,10.275719],[123.809398,10.275307],[123.809016,10.275036],[123.808943,10.27498],[123.808792,10.274788],[123.80864,10.274527],[123.808587,10.274336],[123.808622,10.274178],[123.808729,10.273981],[123.809038,10.273669],[123.809294,10.273448],[123.80941,10.27335],[123.809447,10.273163],[123.809255,10.272533],[123.809099,10.271975],[123.808866,10.271661],[123.808827,10.271475],[123.808901,10.271196],[123.808924,10.270902],[123.808711,10.27045],[123.808742,10.270131],[123.808795,10.269811],[123.808724,10.269652],[123.808273,10.269492],[123.808171,10.269328],[123.807966,10.26897],[123.807884,10.268624],[123.807888,10.268193],[123.807959,10.26792],[123.807928,10.267756],[123.807762,10.267758],[123.807522,10.267787],[123.807404,10.267717],[123.807331,10.26754],[123.807244,10.266816],[123.807297,10.266619],[123.807677,10.26602],[123.807677,10.265793],[123.807702,10.265585],[123.807824,10.265091],[123.807777,10.264708],[123.807797,10.264492],[123.807857,10.264371],[123.807946,10.264365],[123.808015,10.264476],[123.80812,10.264608],[123.808286,10.264612],[123.808391,10.26459],[123.808426,10.264496],[123.808388,10.264358],[123.808417,10.264168],[123.808522,10.264083],[123.808848,10.263858],[123.808979,10.26365],[123.808877,10.263038],[123.808946,10.262716],[123.809104,10.262596],[123.809273,10.262555],[123.80931,10.262401],[123.80929,10.261903]]}},{"type":"Feature","properties":{"kind":"stream","name":""},"geometry":{"type":"LineString","coordinates":[[123.870344,10.309258],[123.870437,10.309021]]}},{"type":"Feature","properties":{"kind":"river","name":"Kinalumsan River"},"geometry":{"type":"LineString","coordinates":[[123.848572,10.313467],[123.848631,10.313371],[123.848686,10.313287],[123.848787,10.313061],[123.848914,10.31286],[123.849036,10.312705],[123.849201,10.312566],[123.849435,10.312496],[123.84961,10.312427],[123.849686,10.312354],[123.849829,10.312303],[123.849989,10.312206],[123.850119,10.312148],[123.850197,10.312066],[123.850217,10.311977],[123.850206,10.311848],[123.850217,10.311732],[123.850262,10.311668],[123.8505,10.311551],[123.850814,10.311496],[123.850968,10.311262],[123.851026,10.311109],[123.850948,10.311018],[123.85098,10.310801],[123.85098,10.310613],[123.850815,10.310411],[123.850754,10.310218],[123.850709,10.310074],[123.850659,10.309831],[123.850657,10.309469],[123.850788,10.309012],[123.850945,10.308886],[123.851163,10.30897],[123.85125,10.309179],[123.851397,10.309251],[123.8516,10.309442],[123.851788,10.309629],[123.851896,10.309674],[123.852035,10.309695],[123.852055,10.309645],[123.852037,10.309424],[123.851992,10.309263],[123.851867,10.308915],[123.85191,10.308667],[123.851974,10.308541],[123.852082,10.30842],[123.85227,10.308304],[123.852446,10.308318],[123.852727,10.308368],[123.852908,10.308438],[123.853151,10.30844],[123.853222,10.308387],[123.853311,10.308268],[123.853294,10.308072],[123.853242,10.307679],[123.853295,10.307313],[123.85337,10.307254],[123.853482,10.307205],[123.853879,10.307226],[123.854011,10.307249],[123.854159,10.307272],[123.854287,10.307263],[123.854428,10.30723],[123.854627,10.307132],[123.854704,10.307081],[123.854788,10.306993],[123.854949,10.306968],[123.855057,10.306986],[123.855228,10.307013],[123.855354,10.30704],[123.855474,10.307058],[123.855624,10.307072],[123.855809,10.307068],[123.855977,10.30693],[123.856134,10.306757],[123.856424,10.306562],[123.85681,10.306353],[123.856957,10.306334],[123.85712,10.306345],[123.857527,10.30626],[123.857774,10.306069],[123.858117,10.305686],[123.858251,10.305466],[123.858278,10.305359],[123.858351,10.305105],[123.858348,10.304882],[123.858348,10.30487],[123.858479,10.304512],[123.85865,10.304239],[123.858752,10.304034],[123.858783,10.303853],[123.858612,10.303446],[123.858597,10.303278],[123.858678,10.303124],[123.858808,10.303009],[123.858892,10.302871],[123.858909,10.30278],[123.859103,10.302646],[123.859354,10.302623],[123.859744,10.30258],[123.860275,10.302547],[123.860496,10.302531],[123.860636,10.302494],[123.860863,10.302409],[123.861421,10.302162],[123.861765,10.301942],[123.862471,10.301687],[123.862535,10.301647],[123.862565,10.301557],[123.862535,10.301425],[123.862487,10.301236],[123.862492,10.301026],[123.862483,10.300748],[123.862626,10.300479],[123.863043,10.300285],[123.863052,10.300131],[123.863034,10.300062],[123.862912,10.29957],[123.8629,10.299522],[123.86297,10.299347],[123.863119,10.299245],[123.8633,10.29919],[123.863402,10.299132],[123.863423,10.299061],[123.863402,10.298946],[123.863348,10.298854],[123.863369,10.298746],[123.863414,10.298663],[123.863533,10.298654],[123.863648,10.298725],[123.863887,10.298872],[123.863942,10.298858],[123.864154,10.298737],[123.864243,10.29868],[123.864285,10.298651],[123.864371,10.298632],[123.864408,10.298661],[123.864476,10.298724],[123.864522,10.298744],[123.864637,10.298736],[123.864785,10.298679],[123.865332,10.298104],[123.8659,10.297414],[123.866075,10.297332],[123.86625,10.297306],[123.866389,10.297376],[123.866851,10.297766],[123.866985,10.297845],[123.867159,10.297851],[123.867474,10.297778],[123.867783,10.29761],[123.868072,10.297516],[123.868398,10.297495],[123.86851,10.297558],[123.868584,10.297659],[123.868635,10.297691],[123.86882,10.29776],[123.868916,10.297813],[123.869114,10.298055],[123.869264,10.298181],[123.869472,10.29828],[123.869694,10.298419],[123.869929,10.298571]]}},{"type":"Feature","properties":{"kind":"stream","name":""},"geometry":{"type":"LineString","coordinates":[[123.860237,10.256752],[123.860307,10.256743],[123.860377,10.256752],[123.860457,10.256772],[123.86053,10.256792],[123.86064,10.256802],[123.860763,10.256825],[123.861029,10.256878],[123.86116,10.256903],[123.861281,10.256948],[123.861371,10.256958],[123.861635,10.256904]]}},{"type":"Feature","properties":{"kind":"river","name":""},"geometry":{"type":"LineString","coordinates":[[123.776341,10.321595],[123.776358,10.322086],[123.776213,10.322453],[123.776234,10.323137],[123.775412,10.323765],[123.775154,10.323804],[123.774912,10.323749],[123.774494,10.32322],[123.77414,10.322664],[123.774043,10.322458],[123.773834,10.322392],[123.773435,10.322369],[123.77338,10.322332],[123.773273,10.322243],[123.773231,10.322123],[123.773226,10.322012]]}},{"type":"Feature","properties":{"kind":"stream","name":""},"geometry":{"type":"LineString","coordinates":[[123.794444,10.334851],[123.794412,10.335031],[123.794401,10.335167],[123.79449,10.335266],[123.794582,10.335305],[123.794738,10.335341],[123.794868,10.335337],[123.795021,10.335233],[123.795101,10.335126],[123.795186,10.335106],[123.795269,10.335151],[123.795349,10.335275],[123.795581,10.335384],[123.795706,10.335434],[123.795781,10.335387],[123.795856,10.335339],[123.796025,10.335343],[123.796086,10.335424],[123.796126,10.335553],[123.796153,10.335707],[123.79619,10.335822],[123.796273,10.335925],[123.796339,10.336012],[123.796379,10.336111],[123.796449,10.336299],[123.796618,10.336371],[123.796746,10.336358],[123.796841,10.336271],[123.796936,10.336283],[123.797037,10.336313],[123.797211,10.336347],[123.797366,10.336363],[123.797456,10.336347],[123.797533,10.336287],[123.797602,10.336182],[123.797675,10.336113],[123.797808,10.336041],[123.797883,10.336025],[123.797974,10.336113],[123.797952,10.336189],[123.797967,10.336271],[123.798029,10.336306],[123.798116,10.336328],[123.798244,10.336359],[123.798405,10.336335]]}},{"type":"Feature","properties":{"kind":"stream","name":"Buhisan River"},"geometry":{"type":"LineString","coordinates":[[123.852207,10.330977],[123.85189,10.330628],[123.851572,10.330334],[123.851549,10.33016],[123.851493,10.33016],[123.851124,10.329966],[123.850896,10.329662],[123.850861,10.329482],[123.850748,10.329398],[123.850731,10.329255],[123.850793,10.329123],[123.85092,10.329111],[123.851017,10.328977],[123.851082,10.32869],[123.851177,10.328492],[123.851153,10.328279],[123.850943,10.328129],[123.850735,10.327942],[123.850574,10.327792],[123.850587,10.327709],[123.850641,10.327604],[123.850667,10.327497],[123.850553,10.327162],[123.850512,10.326955],[123.850514,10.326929],[123.850325,10.32683],[123.850271,10.326727],[123.850262,10.326601],[123.850191,10.326488],[123.84994,10.326323],[123.849684,10.326149],[123.849605,10.326072],[123.849537,10.326024],[123.849439,10.325976],[123.849326,10.325951],[123.849266,10.325934],[123.849195,10.32595],[123.849076,10.325913],[123.849012,10.325901]]}},{"type":"Feature","properties":{"kind":"stream","name":""},"geometry":{"type":"LineString","coordinates":[[123.873765,10.331461],[123.874058,10.331588],[123.874224,10.331751],[123.874289,10.331814]]}},{"type":"Feature","properties":{"kind":"river","name":""},"geometry":{"type":"LineString","coordinates":[[123.874289,10.331814],[123.874628,10.332001],[123.874744,10.332158],[123.874773,10.332265],[123.874812,10.332355],[123.874933,10.332566],[123.87505,10.332624],[123.87515,10.332609]]}},{"type":"Feature","properties":{"kind":"river","name":"Abuno River"},"geometry":{"type":"LineString","coordinates":[[123.776368,10.246839],[123.776536,10.246532],[123.776773,10.246343],[123.777019,10.246115],[123.777216,10.246033],[123.777423,10.246003],[123.777535,10.245945],[123.778151,10.245239],[123.778408,10.244947],[123.778507,10.244788],[123.77864,10.244694],[123.778962,10.244678],[123.779162,10.244657],[123.779542,10.244565],[123.779829,10.244438],[123.780187,10.24428],[123.780485,10.244256],[123.780878,10.243999],[123.780982,10.243912],[123.78104,10.243863],[123.781145,10.243734],[123.781308,10.243658],[123.781634,10.243668],[123.781784,10.243541],[123.781868,10.243335],[123.782325,10.243077],[123.782728,10.242777],[123.783014,10.24246],[123.783074,10.242233],[123.783035,10.241983],[123.783063,10.241671],[123.78335,10.241209],[123.783721,10.240842],[123.784293,10.240237],[123.784666,10.239726],[123.785115,10.239057],[123.785585,10.23828],[123.785765,10.237834],[123.785793,10.237348],[123.785904,10.237144],[123.786229,10.236961],[123.786476,10.236978],[123.78674,10.236931],[123.787355,10.236919],[123.787673,10.236866],[123.787872,10.236693],[123.78828,10.236021],[123.78851,10.23551],[123.789559,10.234833],[123.790017,10.234482],[123.790783,10.233436]]}},{"type":"Feature","properties":{"kind":"stream","name":""},"geometry":{"type":"LineString","coordinates":[[123.874532,10.2851],[123.87453,10.285012],[123.874642,10.284829],[123.874859,10.284546],[123.874906,10.284521],[123.874994,10.28458],[123.875038,10.284574],[123.87536,10.284271],[123.875399,10.284221],[123.875397,10.284036]]}},{"type":"Feature","properties":{"kind":"river","name":""},"geometry":{"type":"LineString","coordinates":[[123.864512,10.279289],[123.864807,10.27925],[123.864945,10.279195],[123.86497,10.279148],[123.864935,10.278991],[123.864949,10.278915],[123.864988,10.278804],[123.864992,10.278689],[123.864977,10.278568],[123.864951,10.278501],[123.864901,10.27836],[123.864955,10.278199],[123.864994,10.277875],[123.864917,10.277518],[123.865071,10.277372],[123.865224,10.277226],[123.865527,10.277024],[123.865806,10.276961],[123.86671,10.276453],[123.867014,10.276149],[123.867218,10.275484],[123.867542,10.275054],[123.867535,10.274843]]}},{"type":"Feature","properties":{"kind":"stream","name":""},"geometry":{"type":"LineString","coordinates":[[123.850612,10.333675],[123.850316,10.333141],[123.850304,10.332596],[123.850318,10.332175],[123.850433,10.33203],[123.850506,10.331938],[123.850473,10.331816],[123.850504,10.331647],[123.85062,10.331564],[123.85074,10.331289],[123.850829,10.331087],[123.85069,10.330884],[123.85058,10.330688],[123.850653,10.330434],[123.850475,10.330189],[123.850493,10.330073],[123.850661,10.330013],[123.850816,10.32996],[123.850896,10.329662]]}},{"type":"Feature","properties":{"kind":"river","name":""},"geometry":{"type":"LineString","coordinates":[[123.798221,10.337493],[123.798415,10.337036],[123.79884,10.33666],[123.799151,10.336465],[123.799392,10.33636],[123.799608,10.336338],[123.799907,10.336386],[123.800085,10.336493],[123.800329,10.336617]]}},{"type":"Feature","properties":{"kind":"stream","name":""},"geometry":{"type":"LineString","coordinates":[[123.854582,10.323421],[123.853992,10.322323],[123.853548,10.321649],[123.853043,10.321202],[123.852748,10.320882],[123.852729,10.320861],[123.852567,10.320669],[123.852514,10.32056],[123.85253,10.320447],[123.852481,10.320328],[123.852358,10.320249],[123.852216,10.320246],[123.852108,10.320315],[123.851856,10.320288],[123.851675,10.320261],[123.851474,10.32017],[123.851117,10.320168],[123.850848,10.319721],[123.850301,10.319199],[123.850083,10.319],[123.849893,10.318407],[123.849576,10.31821]]}},{"type":"Feature","properties":{"kind":"river","name":""},"geometry":{"type":"LineString","coordinates":[[123.832207,10.331768],[123.832349,10.331475],[123.832265,10.331263],[123.832031,10.331203],[123.831952,10.331029],[123.831929,10.330781],[123.832059,10.330592],[123.831901,10.330468],[123.831896,10.33034],[123.831961,10.330206],[123.831903,10.329873],[123.831858,10.329674],[123.831871,10.329268],[123.831766,10.328922],[123.831778,10.32883],[123.831847,10.328724],[123.832,10.328679],[123.832182,10.328714],[123.832323,10.328642],[123.832371,10.328556],[123.832314,10.328413],[123.832099,10.328068],[123.831729,10.327855],[123.831538,10.32768],[123.831479,10.327521],[123.83152,10.32741],[123.831746,10.327322],[123.831863,10.32719],[123.831886,10.327127],[123.831748,10.326904],[123.831669,10.326721],[123.831621,10.326531],[123.831452,10.326285],[123.831427,10.326055],[123.831385,10.326008],[123.831123,10.32587],[123.830997,10.325678],[123.830857,10.32523],[123.830759,10.324804],[123.830703,10.324628],[123.83048,10.324113],[123.830409,10.323853],[123.830489,10.323638],[123.830495,10.32345],[123.830343,10.323305]]}},{"type":"Feature","properties":{"kind":"stream","name":""},"geometry":{"type":"LineString","coordinates":[[123.834421,10.312345],[123.834376,10.31208],[123.83439,10.311938],[123.834443,10.311896],[123.834516,10.311902],[123.834744,10.311808],[123.834801,10.311698],[123.834705,10.311496],[123.834584,10.311377],[123.834375,10.311274],[123.834251,10.311279],[123.834013,10.311427],[123.833768,10.311548],[123.833645,10.311553],[123.833607,10.311493],[123.833685,10.311189],[123.833667,10.310859],[123.833594,10.310828],[123.833522,10.310873],[123.8335,10.310962],[123.833406,10.310986],[123.833313,10.310923],[123.833267,10.310767],[123.833318,10.310416],[123.833304,10.310247],[123.83324,10.310157],[123.833074,10.31007],[123.833031,10.309904],[123.833111,10.309599],[123.833097,10.309373],[123.832973,10.309251],[123.832474,10.309056],[123.832184,10.308966],[123.832191,10.308882],[123.832333,10.308778],[123.8324,10.3086],[123.83241,10.308495],[123.832255,10.308388],[123.831958,10.308367],[123.83165,10.308346],[123.831543,10.308241],[123.831635,10.308207],[123.831844,10.308248],[123.831915,10.30812],[123.831866,10.307928],[123.831703,10.307872],[123.831398,10.307841],[123.831263,10.307647]]}},{"type":"Feature","properties":{"kind":"river","name":""},"geometry":{"type":"LineString","coordinates":[[123.863473,10.264164],[123.863574,10.264143]]}},{"type":"Feature","properties":{"kind":"river","name":"Bulacao River"},"geometry":{"type":"LineString","coordinates":[[123.863574,10.264143],[123.86378,10.264074],[123.864259,10.263977],[123.864822,10.263853],[123.864944,10.263801],[123.865163,10.263723],[123.866325,10.263093],[123.867274,10.262683]]}},{"type":"Feature","properties":{"kind":"river","name":"Pakigne River"},"geometry":{"type":"LineString","coordinates":[[123.782766,10.279704],[123.783353,10.279301],[123.783764,10.279209],[123.784575,10.279016],[123.785254,10.278506],[123.785681,10.27762],[123.785887,10.277132],[123.786756,10.276487],[123.787267,10.276113],[123.787496,10.276113],[123.787737,10.276208],[123.788097,10.276251],[123.788429,10.276229],[123.788654,10.276316],[123.788836,10.276312],[123.788975,10.276213],[123.789157,10.275913],[123.78933,10.275613],[123.789659,10.275466],[123.789839,10.27532],[123.789935,10.275099],[123.790037,10.274915],[123.790653,10.273908],[123.79076,10.273727],[123.790713,10.273624],[123.790567,10.27361],[123.790392,10.273659],[123.790149,10.273592],[123.789996,10.273483],[123.78996,10.273348],[123.790023,10.27323],[123.790035,10.273115],[123.790112,10.272977],[123.790337,10.272905],[123.79112,10.272243],[123.791481,10.271562],[123.791688,10.271121],[123.791971,10.270748],[123.792339,10.270486],[123.792744,10.270251],[123.792951,10.270042],[123.793035,10.269566],[123.79296,10.26917],[123.792842,10.26889],[123.793012,10.268601],[123.793517,10.268198],[123.793679,10.267907],[123.793731,10.267598],[123.79379,10.267408],[123.793988,10.267097],[123.794168,10.266905],[123.794461,10.266623],[123.794645,10.266318],[123.794691,10.265929],[123.794736,10.26572],[123.794884,10.265597],[123.795044,10.26555],[123.795313,10.265456],[123.795801,10.265481],[123.795972,10.265541],[123.796235,10.265541],[123.796718,10.265443],[123.796952,10.265266],[123.796929,10.264973],[123.796998,10.264537],[123.797101,10.264298],[123.797218,10.264192],[123.797222,10.26397],[123.797309,10.263771],[123.797385,10.263552],[123.797507,10.263359],[123.797612,10.263238],[123.797789,10.2632],[123.79795,10.263115],[123.798167,10.262723],[123.798258,10.262209],[123.798278,10.261886],[123.798012,10.261009],[123.797739,10.260382],[123.797614,10.260154],[123.797618,10.260042],[123.79773,10.259966],[123.797864,10.259923],[123.798003,10.259829],[123.798069,10.259644],[123.798089,10.259417],[123.798314,10.258999],[123.798519,10.258849],[123.79876,10.258601],[123.798963,10.258077],[123.798929,10.257602],[123.798904,10.257132],[123.798904,10.256597],[123.79907,10.256114],[123.799402,10.255711],[123.799927,10.255145],[123.800164,10.254818],[123.800371,10.2545],[123.800324,10.253899],[123.800336,10.253691],[123.800619,10.253463],[123.800922,10.253483],[123.801665,10.253569],[123.801992,10.253557],[123.802323,10.253318],[123.80277,10.252815],[123.803038,10.252697],[123.80394,10.252603],[123.804103,10.252418],[123.804183,10.252022],[123.804171,10.251287],[123.804279,10.250769],[123.804798,10.249834],[123.805648,10.248401],[123.805616,10.24824],[123.805105,10.247576],[123.805101,10.24727],[123.805301,10.247061],[123.805632,10.246728],[123.805784,10.246351],[123.805859,10.245695],[123.805812,10.244846],[123.805851,10.24412],[123.806107,10.243421],[123.806394,10.242792],[123.807304,10.241626],[123.808354,10.240416],[123.809399,10.238308]]}},{"type":"Feature","properties":{"kind":"river","name":""},"geometry":{"type":"LineString","coordinates":[[123.7786,10.281843],[123.778909,10.281701],[123.779376,10.281592],[123.78002,10.281741],[123.780702,10.281754],[123.781693,10.28169],[123.782171,10.281486],[123.782278,10.28138],[123.78224,10.281155],[123.78225,10.28042],[123.782354,10.280098],[123.782766,10.279704]]}},{"type":"Feature","properties":{"kind":"river","name":""},"geometry":{"type":"LineString","coordinates":[[123.796385,10.281703],[123.796657,10.281738]]}},{"type":"Feature","properties":{"kind":"river","name":""},"geometry":{"type":"LineString","coordinates":[[123.79129,10.290939],[123.791337,10.290828],[123.791506,10.290765],[123.791576,10.290555],[123.791451,10.290126],[123.791108,10.289846],[123.791099,10.289577],[123.791304,10.289298],[123.791608,10.289178],[123.791964,10.2893],[123.792168,10.289369],[123.792371,10.289246],[123.792479,10.288943],[123.792432,10.288576],[123.792437,10.28823],[123.792561,10.287657],[123.792738,10.287404],[123.793507,10.286731],[123.793732,10.28658],[123.793925,10.286531],[123.794076,10.286513],[123.794179,10.286472],[123.794221,10.286391],[123.794228,10.286305],[123.794211,10.286115],[123.794298,10.285421],[123.794307,10.285246]]}},{"type":"Feature","properties":{"kind":"stream","name":""},"geometry":{"type":"LineString","coordinates":[[123.778517,10.281879],[123.7786,10.281843]]}},{"type":"Feature","properties":{"kind":"stream","name":""},"geometry":{"type":"LineString","coordinates":[[123.778396,10.281932],[123.778517,10.281879]]}},{"type":"Feature","properties":{"kind":"river","name":""},"geometry":{"type":"LineString","coordinates":[[123.794309,10.285092],[123.794243,10.28464],[123.794209,10.284395],[123.794356,10.284251],[123.794534,10.284182],[123.794579,10.284052],[123.794455,10.283811],[123.794315,10.283588],[123.794332,10.283366],[123.794472,10.2833],[123.794903,10.283338],[123.795145,10.283305],[123.795319,10.283153],[123.795371,10.28279],[123.795432,10.282612],[123.795655,10.282509],[123.796204,10.281751],[123.796385,10.281703]]}},{"type":"Feature","properties":{"kind":"river","name":""},"geometry":{"type":"LineString","coordinates":[[123.794307,10.285246],[123.794309,10.285092]]}},{"type":"Feature","properties":{"kind":"stream","name":""},"geometry":{"type":"LineString","coordinates":[[123.818343,10.339627],[123.818485,10.339443],[123.818686,10.339287],[123.818906,10.339076],[123.819075,10.338812],[123.819247,10.338561],[123.819284,10.338279],[123.819477,10.338139],[123.819625,10.337902],[123.819815,10.337738],[123.819808,10.337529]]}},{"type":"Feature","properties":{"kind":"river","name":"Bulacao River"},"geometry":{"type":"LineString","coordinates":[[123.831263,10.307647],[123.831332,10.307541],[123.831546,10.307074],[123.831688,10.306613],[123.831662,10.306251],[123.831537,10.305786],[123.831098,10.304885],[123.830757,10.30414],[123.830573,10.303422],[123.830522,10.303177],[123.830454,10.303078],[123.830193,10.30299],[123.830107,10.302911],[123.83006,10.302765],[123.830113,10.302649],[123.830285,10.302535],[123.8303,10.302412],[123.83027,10.30226],[123.830368,10.302006],[123.830294,10.301758],[123.830184,10.301653],[123.830169,10.301341],[123.830255,10.301043],[123.830249,10.300695],[123.829953,10.299674],[123.829837,10.298985],[123.829763,10.298716],[123.829623,10.297709],[123.829594,10.297546],[123.829374,10.297338],[123.829199,10.297251],[123.82895,10.297189],[123.828873,10.297084],[123.828831,10.296643],[123.829131,10.295811],[123.829232,10.295414],[123.829107,10.294979],[123.828876,10.294746],[123.828712,10.294682],[123.828508,10.29474],[123.828217,10.29488],[123.827911,10.294886],[123.827576,10.294775],[123.827264,10.294498],[123.826959,10.294121],[123.826947,10.293797]]}},{"type":"Feature","properties":{"kind":"stream","name":""},"geometry":{"type":"LineString","coordinates":[[123.848332,10.332419],[123.848386,10.332318],[123.848379,10.332203],[123.84852,10.332081],[123.848502,10.331911],[123.848522,10.331714],[123.848651,10.331621],[123.848876,10.331536],[123.849176,10.331504],[123.849552,10.331151],[123.849745,10.330966],[123.850035,10.330935],[123.850195,10.331003],[123.850389,10.331246],[123.850603,10.331272],[123.850829,10.331087]]}},{"type":"Feature","properties":{"kind":"stream","name":""},"geometry":{"type":"LineString","coordinates":[[123.8555,10.333154],[123.855146,10.333115],[123.854895,10.33322],[123.854711,10.333196],[123.854325,10.333091],[123.854191,10.333098],[123.85401,10.333175],[123.853883,10.333091],[123.853826,10.332952],[123.853419,10.332976],[123.85327,10.333004],[123.853132,10.332858],[123.85287,10.332743],[123.85264,10.332698],[123.852534,10.33259],[123.852516,10.332297],[123.852463,10.332123],[123.852538,10.331876],[123.852524,10.331702],[123.852403,10.331497],[123.852276,10.331159],[123.852207,10.330977]]}},{"type":"Feature","properties":{"kind":"stream","name":""},"geometry":{"type":"LineString","coordinates":[[123.871951,10.336897],[123.871943,10.336766],[123.871817,10.336578],[123.871719,10.336429],[123.871793,10.336274],[123.87176,10.3361],[123.871816,10.336002],[123.872052,10.335604],[123.872216,10.335385],[123.872256,10.335303],[123.872221,10.335179],[123.872122,10.335097],[123.871977,10.334957],[123.871929,10.334862],[123.871964,10.334794],[123.87208,10.334671]]}},{"type":"Feature","properties":{"kind":"stream","name":""},"geometry":{"type":"LineString","coordinates":[[123.849169,10.333891],[123.849237,10.333811],[123.849272,10.333641],[123.849315,10.333561],[123.849382,10.333488],[123.849389,10.333376],[123.849392,10.33315],[123.849456,10.332958],[123.849378,10.332812],[123.849382,10.332666],[123.849421,10.332551],[123.849491,10.332523],[123.849605,10.332537],[123.849661,10.332506],[123.849697,10.332436],[123.849746,10.332227],[123.849824,10.332147],[123.850022,10.332133],[123.850242,10.332088],[123.850361,10.332062],[123.850433,10.33203]]}},{"type":"Feature","properties":{"kind":"stream","name":""},"geometry":{"type":"LineString","coordinates":[[123.77623,10.327492],[123.77548,10.326642],[123.774672,10.32603],[123.774191,10.325556],[123.773965,10.325264],[123.773696,10.325055],[123.773597,10.32479],[123.773554,10.324358],[123.773573,10.323932],[123.773512,10.323597],[123.773373,10.323256],[123.773302,10.3229],[123.773457,10.322439],[123.773435,10.322369]]}},{"type":"Feature","properties":{"kind":"stream","name":""},"geometry":{"type":"LineString","coordinates":[[123.780038,10.317374],[123.780183,10.317496],[123.780304,10.317648],[123.780387,10.317802],[123.780493,10.317954],[123.780509,10.318076],[123.78054,10.318236],[123.780672,10.318352],[123.780836,10.318444],[123.780869,10.318544],[123.780896,10.318861],[123.780926,10.318934],[123.781098,10.319009],[123.781271,10.31921],[123.781352,10.319413],[123.781326,10.319525],[123.781351,10.319561],[123.781439,10.319584],[123.78153,10.319612],[123.781588,10.31968],[123.781606,10.31976],[123.781599,10.319932],[123.781611,10.320011],[123.781703,10.320098],[123.781855,10.320266],[123.781997,10.320367],[123.78225,10.320391],[123.782405,10.320392],[123.782488,10.320423],[123.782519,10.320601],[123.782635,10.320869],[123.782814,10.321379],[123.783076,10.321794],[123.783095,10.322001],[123.783005,10.322171],[123.783012,10.322378],[123.783203,10.322517],[123.783523,10.322485],[123.783887,10.322636],[123.784085,10.322888],[123.78413,10.323139],[123.784362,10.323307],[123.784573,10.323391],[123.784788,10.323315],[123.784968,10.323351],[123.785165,10.323512],[123.78548,10.323528],[123.785638,10.323585],[123.786181,10.323755],[123.786328,10.323937],[123.786345,10.324056],[123.786502,10.324189],[123.786642,10.324343],[123.787012,10.324516],[123.787447,10.324786],[123.787587,10.324981],[123.787779,10.325377],[123.78799,10.32561],[123.788228,10.325679],[123.788543,10.325497],[123.788812,10.325489]]}},{"type":"Feature","properties":{"kind":"stream","name":""},"geometry":{"type":"LineString","coordinates":[[123.865299,10.330481],[123.865568,10.330777],[123.86578,10.330833],[123.865901,10.330829],[123.866028,10.330756],[123.866156,10.330843],[123.866306,10.330945],[123.866376,10.331103],[123.866442,10.331234],[123.866584,10.331268],[123.866824,10.331358],[123.866922,10.33142],[123.866957,10.331468],[123.866943,10.331514],[123.866894,10.331592],[123.866897,10.331668],[123.86696,10.331712],[123.86709,10.331746],[123.867146,10.33179],[123.867259,10.331987],[123.867363,10.332085],[123.867448,10.332225],[123.867532,10.332258],[123.867719,10.332287],[123.867916,10.332221],[123.868067,10.332115],[123.868212,10.332089],[123.86831,10.332127],[123.868387,10.332181],[123.868427,10.332306],[123.868452,10.332688],[123.868541,10.332824],[123.868714,10.332939],[123.868883,10.332975],[123.869182,10.332985],[123.869409,10.332972],[123.869472,10.332974],[123.869561,10.333036],[123.869626,10.333179],[123.869647,10.333376],[123.869687,10.333489],[123.869743,10.333539],[123.869848,10.333558],[123.870098,10.333663],[123.870226,10.333728],[123.870303,10.333829],[123.870336,10.33393],[123.87038,10.334017],[123.870506,10.3341],[123.870602,10.334155]]}},{"type":"Feature","properties":{"kind":"stream","name":""},"geometry":{"type":"LineString","coordinates":[[123.793788,10.240704],[123.793821,10.240605],[123.793889,10.240554],[123.794038,10.239897],[123.794207,10.2399],[123.794622,10.239802],[123.794915,10.23882],[123.795067,10.238266],[123.795335,10.237237]]}},{"type":"Feature","properties":{"kind":"stream","name":""},"geometry":{"type":"LineString","coordinates":[[123.769085,10.299311],[123.769092,10.299019],[123.769198,10.298824],[123.769269,10.298406],[123.769382,10.298079],[123.769588,10.297744],[123.769644,10.29741],[123.769672,10.297132],[123.769729,10.297048],[123.770175,10.296881],[123.770458,10.296609],[123.770848,10.296324],[123.770954,10.296261],[123.771279,10.296331],[123.771428,10.296296],[123.771492,10.296212],[123.771485,10.295648],[123.771492,10.295467],[123.771569,10.295369],[123.771747,10.295314],[123.772037,10.295362],[123.772589,10.295439],[123.773502,10.295488],[123.773714,10.295314],[123.7737,10.29507],[123.77375,10.294666],[123.773955,10.294569],[123.774663,10.294694],[123.775031,10.294596],[123.775272,10.294464],[123.775913,10.293704],[123.776532,10.293531],[123.776708,10.29344],[123.776758,10.293329],[123.776715,10.293231],[123.776723,10.293134],[123.776822,10.29305],[123.776971,10.29296],[123.777032,10.292871],[123.777061,10.292824],[123.777163,10.292746]]}},{"type":"Feature","properties":{"kind":"river","name":""},"geometry":{"type":"LineString","coordinates":[[123.788569,10.255532],[123.788658,10.255207],[123.788853,10.255049],[123.789065,10.254972],[123.789246,10.254941],[123.789549,10.254786],[123.78995,10.254684],[123.790169,10.254572],[123.790234,10.254507],[123.790245,10.254451],[123.790221,10.254388],[123.790159,10.254338],[123.790113,10.25429],[123.790113,10.254247],[123.790144,10.254198],[123.790482,10.254074],[123.790589,10.254044],[123.790744,10.253922],[123.791016,10.253819],[123.791352,10.2538],[123.791502,10.253783],[123.79178,10.253707],[123.792067,10.253629],[123.792105,10.253381],[123.79207,10.252942],[123.792039,10.2527],[123.792138,10.252505],[123.792406,10.252367],[123.792666,10.252381],[123.79287,10.252352],[123.793014,10.25224],[123.793758,10.250848],[123.79391,10.250636],[123.794103,10.250575],[123.79416,10.250449],[123.794106,10.250198],[123.794102,10.250028],[123.794125,10.249674],[123.794089,10.249421],[123.79429,10.249207],[123.794229,10.248876],[123.794348,10.248555],[123.794384,10.248237],[123.794476,10.248007],[123.794524,10.247856],[123.794516,10.247679],[123.794407,10.247474],[123.794155,10.246989],[123.794331,10.246459],[123.794416,10.24628],[123.794267,10.246026]]}},{"type":"Feature","properties":{"kind":"river","name":""},"geometry":{"type":"LineString","coordinates":[[123.794267,10.246026],[123.794145,10.245729],[123.794212,10.245624],[123.79418,10.245445],[123.794218,10.245029]]}},{"type":"Feature","properties":{"kind":"river","name":""},"geometry":{"type":"LineString","coordinates":[[123.794218,10.245029],[123.794004,10.244686]]}},{"type":"Feature","properties":{"kind":"river","name":""},"geometry":{"type":"LineString","coordinates":[[123.794004,10.244686],[123.793941,10.244407],[123.793929,10.244231],[123.793986,10.244],[123.793972,10.243832],[123.793919,10.2437],[123.793818,10.243543],[123.793774,10.243433],[123.793766,10.243343],[123.79376,10.243291],[123.793633,10.243255],[123.793516,10.243194],[123.793375,10.24299],[123.793271,10.242744],[123.793279,10.242622],[123.793324,10.242375],[123.793363,10.242084],[123.793427,10.24183],[123.793489,10.241686],[123.793656,10.241594],[123.79377,10.241224]]}},{"type":"Feature","properties":{"kind":"river","name":"Bulacao River"},"geometry":{"type":"LineString","coordinates":[[123.867274,10.262683],[123.867531,10.26254],[123.867676,10.262475],[123.867892,10.262437],[123.868083,10.262404],[123.868221,10.262392]]}},{"type":"Feature","properties":{"kind":"river","name":""},"geometry":{"type":"LineString","coordinates":[[123.776355,10.321475],[123.776341,10.321595]]}},{"type":"Feature","properties":{"kind":"river","name":""},"geometry":{"type":"LineString","coordinates":[[123.776626,10.320601],[123.776387,10.321224],[123.776355,10.321475]]}},{"type":"Feature","properties":{"kind":"stream","name":""},"geometry":{"type":"LineString","coordinates":[[123.778252,10.309266],[123.7779,10.309267],[123.777816,10.309131],[123.77718,10.309259],[123.776676,10.309396],[123.776149,10.309697]]}},{"type":"Feature","properties":{"kind":"stream","name":""},"geometry":{"type":"LineString","coordinates":[[123.773438,10.309416],[123.773577,10.309591],[123.773562,10.309623],[123.773485,10.309703],[123.773495,10.309766],[123.773821,10.310114],[123.774046,10.31013],[123.774462,10.310383],[123.774511,10.310469],[123.774553,10.310792],[123.774738,10.311109],[123.774747,10.311184],[123.774744,10.311258]]}},{"type":"Feature","properties":{"kind":"river","name":""},"geometry":{"type":"LineString","coordinates":[[123.786199,10.299135],[123.786788,10.298619],[123.787289,10.298616],[123.787579,10.298306],[123.788344,10.298021],[123.789155,10.297471]]}},{"type":"Feature","properties":{"kind":"stream","name":""},"geometry":{"type":"LineString","coordinates":[[123.783209,10.305636],[123.783219,10.30557]]}},{"type":"Feature","properties":{"kind":"stream","name":""},"geometry":{"type":"LineString","coordinates":[[123.782372,10.306297],[123.782523,10.306064],[123.782645,10.305946],[123.782911,10.305933],[123.783066,10.30574],[123.783144,10.305727],[123.783209,10.305636]]}},{"type":"Feature","properties":{"kind":"river","name":""},"geometry":{"type":"LineString","coordinates":[[123.783219,10.30557],[123.783223,10.305519],[123.783164,10.305403],[123.783192,10.305312],[123.783148,10.305158],[123.783298,10.304952],[123.783359,10.304779],[123.783471,10.304657],[123.783466,10.304566],[123.783489,10.304457],[123.783693,10.304399],[123.783973,10.304415],[123.784267,10.30431],[123.78444,10.304299],[123.784434,10.304253],[123.784572,10.304168],[123.784681,10.304066],[123.784887,10.304042],[123.784956,10.304019],[123.785338,10.303939],[123.785521,10.304002],[123.785647,10.303971],[123.78573,10.30368],[123.785545,10.303232],[123.785569,10.302941],[123.785378,10.30258],[123.785679,10.302284],[123.785421,10.30182],[123.785247,10.301324],[123.785274,10.301033],[123.785459,10.300885],[123.785665,10.301004],[123.785832,10.300912],[123.785904,10.300595],[123.785824,10.300297],[123.785775,10.300054],[123.78595,10.299505],[123.786199,10.299135]]}},{"type":"Feature","properties":{"kind":"stream","name":""},"geometry":{"type":"LineString","coordinates":[[123.772874,10.264931],[123.772859,10.264674],[123.773008,10.264358],[123.772933,10.264056],[123.772853,10.263512],[123.772944,10.263154],[123.773322,10.262699],[123.773595,10.262034],[123.773621,10.261669],[123.773575,10.261387],[123.773368,10.261025],[123.77305,10.260607],[123.772852,10.260501],[123.772581,10.260512],[123.772269,10.26054],[123.771873,10.260445],[123.771633,10.26032],[123.771178,10.260151],[123.770878,10.259856],[123.770449,10.25956],[123.770063,10.259214],[123.769942,10.258826],[123.77008,10.257939],[123.770135,10.25742]]}},{"type":"Feature","properties":{"kind":"river","name":""},"geometry":{"type":"LineString","coordinates":[[123.83218,10.33181],[123.832207,10.331768]]}},{"type":"Feature","properties":{"kind":"river","name":""},"geometry":{"type":"LineString","coordinates":[[123.837058,10.335414],[123.836816,10.335335],[123.836752,10.335238],[123.836812,10.335017],[123.836798,10.334884],[123.83672,10.334807],[123.836474,10.334787],[123.836345,10.334751],[123.836241,10.334604],[123.836078,10.334591],[123.835967,10.334644],[123.835855,10.334664],[123.835811,10.334618],[123.835828,10.334521],[123.835913,10.334392],[123.835855,10.334315],[123.835686,10.334269],[123.835284,10.334315],[123.834804,10.334172],[123.834507,10.333923],[123.834267,10.333803],[123.833916,10.33374],[123.833493,10.333434],[123.833135,10.333168],[123.832973,10.332929],[123.832881,10.332633],[123.832885,10.33244],[123.832952,10.33233],[123.832892,10.332174],[123.832746,10.332068],[123.83254,10.331972],[123.832308,10.33205],[123.832238,10.332079],[123.832148,10.332045],[123.832156,10.331868],[123.83218,10.33181]]}},{"type":"Feature","properties":{"kind":"stream","name":""},"geometry":{"type":"LineString","coordinates":[[123.835214,10.294441],[123.83619,10.293111],[123.836324,10.292351],[123.836651,10.291496],[123.837054,10.291068],[123.837644,10.290889],[123.8383,10.290894]]}},{"type":"Feature","properties":{"kind":"stream","name":""},"geometry":{"type":"LineString","coordinates":[[123.837504,10.294288],[123.838357,10.291665],[123.8383,10.290894]]}}]}